"id","location_id","attention","address_1","address_2","address_3","address_4","city","region","state_province","postal_code","country","address_services","address_organization"
"594041340982660","557042258022055","","","899 North Capitol St NE","","","","Washington","","DC","20002","US",""
"549781755675450","1303501603402692","","","1126 16th St NW","","","","Washington","","DC","20036","US",""
"585146293887120","1331394191570751","","","4100 Mohawk Lane","","","","Alexandria","","VA","22309","US",""
"622792920044728","1293267778021809","","","4900 Puerto Rico Avenue NE","","","","Washington","","DC","20017","US",""
"602770380079783","1261462848590883","","","4930 Connecticut Avenue NW","","","","Washington","","DC","20008","US",""
"634628013094891","1261098666898898","","","260 54th Street NE","","","","Washington","","DC","20019","US",""
"654987694705915","1288243545225450","","","4430 Benning Road NE","","","","Washington","","DC","20019","US",""
"658580381720705","819741028296646,1233404465582125","","","64 New York Ave NE","","","","Washington","","DC","20002","US",""
"665890077989539","1318371479368083","","","1000 Forest Glen Road","","","","Silver Springs","","MD","20901","US",""
"673213518639237","1327146928348308","","","2025 M Street","","","","Washington","","DC","20036","US",""
"681368099365337","1288638701381373","","","1516 Hamilton Street NW","","","","Washington","","DC","20011","US",""
"669837267515092","1320932553563772","","","1901 Evarts St. NE","","","","Washington","","DC","20018","US",""
"679686776530250","1280629114863869","","","2500 14th St NW","","","","Washington","","DC","20003","US",""
"779336728078064","1295065323399805","","","1719 13th Street NW","","","","Washington","","DC","20009","US",""
"738845486283459","1285677988970642","","","1617 U Street NW","","","","Washington","","DC","20009","US",""
"747206662074907","1190992226347185","","","801 Pennsylvania Ave SE","","","","Washington","","DC","20003","US",""
"781650165129368","1283768891049166","","","3309 16th St NW","","","","Washington","","DC","20010","US",""
"779204777927363","1295303526129555","","","2812 Pennsylvania Avenue SE","","","","Washington","","DC","20020","US",""
"800432356809465","1263123342132362","","","4017 Minnesota Avenue, NE","","","","Washington","","DC","20019","US",""
"787100265241537","1331109090254077","","","118 Brookley Ave SW","","","","Washington","","DC","20032","US",""
"782663284558293","1288442867873978","","","2907 Martin Luther King Jr Ave SE","","","","Washington","","DC","20032","US",""
"797095276624429","1303213322109189","","","2301 Martin Luther King Jr. Ave SE","","","","Washington","","DC","20020","US",""
"851618718178592","1269501575509775","","","202 Custer Rd","","","","Ft Myer","","VA","22211","US",""
"801363455011364","1288607908643209,1044411535350668,848643167597481","","","425 2nd St NW","","","","Washington","","DC","20001","US",""
"811353031461557","1300354176059967","","","2 North, 425 2nd St NW","","","","Washington","","DC","20001","US",""
"843557435036966","1142163554566402","","","71 O St NW","","","","Washington","","DC","20001","US",""
"905102359150495","1300388977460036","","","1700 Powder Mill Road","","","","Washington","","DC","20903","US",""
"894904473977360","1281896636126927","","","1520 C Street SE","","","","Washington","","DC","20003","US",""
"878763664887036","1301350893555178","","","2616 Martin Luther King Jr. Ave, SE","","","","Washington","","DC","20020","US",""
"901720689361729","1312052344982531","","","807 2nd St, NW","","","","Washington","","DC","20001","US",""
"955069374299046","1327111523498666","","","3401 Martin Luther King Jr. Ave, SE","","","","Washington","","DC","20032","US",""
"963915599600617","1293661242956981","","","4808 Moorland Lane","","","","Bethesda","","MD","20814","US",""
"980902256958058","1092551085212094,1160291369304648,1249696647199145","","","1525 Newton St NW","","","","Washington","","DC","20010","US",""
"976930795946091","1289696854137570","","","701 Maryland Avenue NE","","","","Washington","","DC","20002","US",""
"932726380194203","1299568679392516","","","6323 Georgia Ave NW","","","","Washington","","DC","20011","US",""
"978661487781674","1252910195472458","","","2425 Irving Street SE","","","","Washington","","DC","20020","US",""
"984182916936531","1319160943243149,583377819980477","","","2938 Prosperity Ave","","","","Fairfax","","VA","22031","US",""
"980577201887269","1279229683648851","","","4 Atlantic Street, SW","","","","Washington","","DC","20032","US",""
"967156820432437","1276182199916444","","","5 Thomas Cir NW","","","","Washington","","DC","20005","US",""
"1073180239579426","1285941015621805","","","3260 R Street NW","","","","Washington","","DC","20007","US",""
"1064859800913984","1286290424953168","","","600 5th St NW","","","","Washington","","DC","20001","US",""
"1105631318690559","1215072401279141,867480542956619","","","60 O St NW","","","","Washington","","DC","20001","US",""
"1118408431799639","1326321443548696","","","8794-A Sacramento Drive","","","","Alexandria","","VA","22309","US",""
"1099647434382612","760606739511356","","","12247 Georgia Ave","","","","Silver Spring","","MD","20902","US",""
"1108677909528551","1202618027693441","","","3912 Georgia Avenue, NW","","","","Washington","","DC","20011","US",""
"1113495856426602","1274752047885511","","","1701 Gales Street NE","","","","Washington","","DC","20002","US",""
"1117732063481354","1319844001361667","","","330-B S. Virginia Ave.","","","","Falls Church","","VA","22046","US",""
"1122550863766064","1233404465582125","","","64 New York Avenue, NE, 3rd Floor","","","","Washington","","DC","20002","US",""
"1215798438097456","1281917418518969","","","6031 Kansas Avenue NW","","","","Washington","","DC","20011","US",""
"1218467427350381","1284378916833442","","","1331 H St NW","","","","Washington","","DC","20005","US",""
"1228978427308940","1299289453217378,840736701093471","","","305 E St NW","","","","Washington","","DC","20001","US",""
"1224004543230409","940988880402930,1296924653275525","","","828 Evarts Street NE","","","","Washington","","DC","20018","US",""
"1230987348795184","1274248047601637","","","2224 E. Fayette St.","","","","Baltimore","","MD","21231","US",""
"1197672794059993","1333682431246522","","","1949 4th Street, N.E.","","","","Washington","","DC","20002","US",""
"1227805924003015","1328529263083601","","","212 East Capitol St. NE","","","","Washington","","DC","20003","US",""
"1273928223164382","1315539978603581","","","5321 First Place NE","","","","Washington","","DC","20011","US",""
"1259176818692119","1293436869828060","","","645 Pennsylvania Ave SE","","","","Washington","","DC","20003","US",""
"1282294135634428","1295522145612055","","","64 New York Avenue NE, 6th Floor","","","","Washington","","DC","20002","US",""
"1306451793543777","1317058386900282","","","7978-B New Hampshire Ave.","","","","Hyattesville","","MD","20783","US",""
"1268199460403994","1272787330877007","","","2118 Ridgecrest Court, SE","","","","Washington","","DC","20020","US",""
"1336997836830511","1320760535782101","","","2200 S Dakota Ave NE","","","","Washington","","DC","20018","US",""
"1347874758673672","","","","","","","","","","","","US",""
"1347874758673674","","","","1525 7th Street, N.W.","","","","Washington","","DC","20001","US",""
"1347874758673675","","","","1700 Good Hope Rd SE","","","","Washington","","DC","20020","US",""
"1347874758673676","","","","3000 Washington Boulevard","","","","Baltimore","","MD","21230","US",""
"1347874758673679","","","","25 4d square mall","","","","Baltimore","","DC","380015","US",""
"1347874758673682","","","","8908 Riggs Rd","","","","Adelphi","","MD","20783","",""
"1347874758673683","","","","344 University Blvd. West","","","","Silver Spring","","MD","20901","",""
"1347874758673684","","","","324 Kennedy Street NW","","","","Washington","","DC","20011","",""
"1347874758673685","","","","8908 Riggs Road","","","","Silver Spring","","MD","20783","",""
"1347874758673686","","","","1200 G Street, NW , Suite #725","","","","Washington","","DC","20005","",""
"1347874758673690","","","","810 First St NE #900","","","","Washington","","DC","20002","",""
"1347874758673691","","","","1647 Benning Road Northeast #303","","","","Washington","","DC","20002","",""
"1347874758673692","","","","1201 Brentwood Road Northeast","","","","Washington","","DC","20018","",""
"1347874758673693","","","","1060 Brentwood Road Northeast","","","","Washington","","DC","20018","",""
"1347874758673694","","","","765 Kenilworth Terrace Northeast","","","","Washington","","DC","20019","",""
"1347874758673695","","","","3924 Minnesota Avenue Northeast","","","","Washington","","DC","20019","",""
"1347874758673696","","","","3917 Minnesota Avenue Northeast","","","","Washington","","DC","20019","",""
"1347874758673697","","","","1816 12th Street Northwest","","","","Washington","","DC","20009","",""
"1347874758673698","","","","2041 Martin Luther King Jr Ave SE Suite 300","","","","Washington","","DC","20020","",""
"1347874758673700","","","","2970 Belcrest Center Drive, Unit 301","","","","Hyattsville","","MD","20782","",""
"1347874758673701","","","","5859 Allentown Way","","","","","","MD","20748","",""
"1347874758673702","","","","810 New Jersey Ave NW","","","","Washington","","DC","20001","",""
"1347874758673703","","","","2619 Bladensburg Rd NE","","","","Washington","","DC","20018","",""
"1347874758673704","","","","12247 Georgia Ave.","","","","Silver Spring","","MD","20902","",""
"1347874758673706","","","","1140 Varnum Street NE","","","","Washington","","DC","20018","",""
"1347874758673707","","","","1150 Varnum Street, NE 2nd floor","","","","Washington","","DC","20018-3262","",""
"1347874758673709","","","","6420 Rockledge Dr","","","","Bethesda","","MD","20817","",""
"1347874758673710","","","","8600 Old Georgetown Rd","","","","Bethesda","","MD","20814","",""
"1347874758673712","","","","1400 1st Street NW","","","","Washington","","DC","20001","",""
"1347874758673713","","","","640 Anacostia Ave., NE","","","","Washington","","DC","20019","",""
"1347874758673715","","","","Children's National Hospital 111 Michigan Ave NW","","","","Washington","","DC","20010","",""
"1347874758673716","","","","1214 I Street S.E., Suite 11","","","","Washington","","DC","20003","",""
"1347874758673718","","","","Address_edit","","","","Ankeny","","IA","10010_edit","",""
"1347874758673721","","","","Street Address:_edit","","","","Adelphi","","DC","10010_edit","",""
"1347874758673724","","","","_Again edit_There are many variations of passages of Lorem Ipsum available, but the majority have suffered alteration in some form, by injected humour, or randomised words which don't look even slightly believable. If you are going to use a passage of Lorem Ipsum, you need to be sure there isn't anything embarrassing hidden in the middle of text. All the Lorem Ipsum generators on the Internet tend to repeat predefined chunks as necessary, making this the first true generator on the Internet. It uses a dictionary of over 200 Latin words, combined with a handful of model sentence structures, to generate Lorem Ipsum which looks reasonable. The generated Lorem Ipsum is therefore always free from repetition, injected humour, or non-characteristic words etc.There are many variations of passages of Lorem Ipsum available, but the majority have suffered alteration in some form, by injected humour, or randomised words which don't look even slightly believable. If you are going to use a passage of Lorem Ipsum, you need to be sure there isn't anything embarrassing hidden in the middle of text. All the Lorem Ipsum generators on the Internet tend to repeat predefined chunks as necessary, making this the first true generator on the Internet. It uses a dictionary of over 200 Latin words, combined with a handful of model sentence structures, to generate Lorem Ipsum which looks reasonable. The generated Lorem Ipsum is therefore always free from repetition, injected humour, or non-characteristic words etc.There are many variations of passages of Lorem Ipsum available, but the majority have suffered alteration in some form, by injected humour, or randomised words which don't look even slightly believable. If you are going to use a passage of Lorem Ipsum, you need to be sure there isn't anything embarrassing hidden in the middle of text. All the Lorem Ipsum generators on the Internet tend to repeat predefined chunks as necessary, making this the first true generator on the Internet. It uses a dictionary of over 200 Latin words, combined with a handful of model sentence structures, to generate Lorem Ipsum which looks reasonable. The generated Lorem Ipsum is therefore always free from repetition, injected humour, or non-characteristic words etc._edit_edit","","","","Lorton","","MD","_Again edit_10010","",""
"1347874758673730","","","","California_EDIT","","","","Alexandria","","DC","10010_EDIT","",""
"1347874758673731","","","","nehrunagar","","","","Ankeny","","DC","10010","",""
