id,location_id,attention,address_1,address_2,address_3,address_4,city,region,state_province,postal_code,country
594041340982660,557042258022055,,"899 North Capitol St NE",,,,Washington,,DC,20002,US
594041340982660,1333682431246552,,"899 North Capitol St NE",,,,Washington,,DC,20002,US
594041340982660,1333682431246554,,"899 North Capitol St NE",,,,Washington,,DC,20002,US
581241517123611,957520333540238,,"3240 Stanton Road SE",,,,Washington,,DC,20020,US
601018594378812,902244835227859,,"1217 Good Hope Road SE",,,,Washington,,DC,20020,US
602013012418112,1198692764026642,,"9401 Old Georgetown Road",,,,Bethesda,,MD,20814,US
623980338427834,1091354780708194,,"1320 Mississippi Avenue, SE",,,,Washington,,DC,20032,US
634628013094891,1261098666898898,,"260 54th Street NE",,,,Washington,,DC,20019,US
600813147654170,780622753430249,,"3020 14th Street NW",,,,Washington,,DC,20009,US
615754001734322,610544508126672,,"1717 Columbia Road NW",,,,Washington,,DC,20009,US
623483554226574,577218861870418,,"12196 Sunset Hills Road",,,,Reston,,VA,20190,US
672688689633830,1229706459709655,,"765 Kenilworth Terrace NE",,,,Washington,,DC,20019,US
687699147533037,815051886893035,,"9440 Marlboro Pike",,,,"Upper Marlboro",,MD,20772,US
697965079239989,636848661261240,,"2375 Elvans Rd. SE",,,,Washington,,DC,20020,US
730523059624038,1091301498101680,,"15245 Shady Grove Road",,,,Rockville,,MD,20850,US
734118238049434,634604766992517,,"3211 Sacred Heart Way",,,,Washington,,DC,20010,US
736104421703506,991654914903385,,"1325 W Street, NW",,,,Washington,,DC,20009,US
758769305327957,910674112866949,,"5650 Oakmont Avenue",,,,Bethesda,,MD,20817,US
791236860915802,1089431432526337,,"6600 Laurel Bowie Road",,,,Bowie,,MD,20715,US
783095640816156,857483351214468,,"1413 Girard Street, NW",,,,Washington,,DC,20009,US
810499733508160,637109273390087,,"4501 Grant Street NE",,,,Washington,,DC,20019,US
808918445165876,950665445636496,,"5028 Wisconsin Ave NW",,,,Washington,,DC,20016,US
750182888138367,991046422392107,,"3912 Georgia Ave NW",,,,Washington,,DC,20011,US
778820650741473,665537720302910,,"1022 Maryland Ave NE",,,,Washington,,DC,20002,US
778820650741473,693867662447380,,"1022 Maryland Ave NE",,,,Washington,,DC,20002,US
782663284558293,1288442867873978,,"2907 Martin Luther King Jr Ave SE",,,,Washington,,DC,20032,US
786143725434715,972271189983680,,"9850 Key West Avenue",,,,Rockville,,MD,20850,US
787024441457406,1159744769911269,,"555 L Street SE",,,,Washington,,DC,20003,US
792837578790856,1191500192034471,,"9850 Key West Ave",,,,Rockville,,MD,20850,US
811181965374068,800464838128526,,"2700 Martin Luther King Jr. Avenue SE",,,,Washington,,DC,20032,US
817796784415201,1182708981110979,,"899 N Capitol St NE",,,,Washington,,DC,20002,US
801589347975855,779234665793356,,"2422 North Fillmore Street",,,,Arlington,,VA,22201,US
801363455011364,848643167597481,,"425 2nd St NW",,,,Washington,,DC,20001,US
801363455011364,1044411535350668,,"425 2nd St NW",,,,Washington,,DC,20001,US
801363455011364,1288607908643209,,"425 2nd St NW",,,,Washington,,DC,20001,US
807937964671680,800069869376535,,"3101 Martin Luther King Jr Ave SE",,,,Washington,,DC,20032,US
838664629382559,853177830631548,,"3715 2nd Street, SE",,,,Washington,,DC,20032,US
814164678263538,1183173298558849,,"601 E St NW",,,,Washington,,DC,20049,US
838488296850768,770924552273178,,"6301 Greentree Road",,,,Bethesda,,MD,20817,US
820817860027881,1043993116448952,,"110 Irving St., NW",,,,Washington,,DC,20010,US
854668416527336,1135336670475675,,"611 N St NW",,,,Washington,,DC,20001,US
881121860903887,1159353858034099,,"810 5th Street NW",,,,Washington,,DC,20001,US
881121860903887,1225318904357849,,"810 5th Street NW",,,,Washington,,DC,20001,US
905037261346524,1172909242301924,,"1438 Rhode Island Avenue NE",,,,Washington,,DC,20018,US
874939942828607,849213479290179,,"15th St NW & K Street Northwest",,,,Washington,,DC,20005,US
901720689361729,1312052344982531,,"807 2nd St, NW",,,,Washington,,DC,20001,US
900274267215840,906614178779692,,"624 West Church Road",,,,Sterling,,VA,20164,US
948876011596931,1146850101014457,,"2333 Ontario Rd NW",,,,Washington,,DC,20009,US
905852277360699,678805469856026,,"1001 Lawrence St NE",,,,Washington,,DC,20017,US
904876794525199,953875575104132,,"100 Gallatin Street NE",,,,Washington,,DC,20011,US
910588942573711,1168148392185022,,"3023 Hamaker Court",,,,Fairfax,,VA,22031,US
920336761856377,920613426512187,,"1906 Allison Street, NE",,,,Washington,,DC,20018,US
925088886359493,538977790426516,,"1312 East Capitol Street",,,,Washington,,DC,20003,US
932050155937690,945974432326654,,"4414 Benning Road NE",,,,Washington,,DC,20019,US
962503597996582,877840974751997,,"301 Rhode Island Ave NW",,,,Washington,,DC,20001,US
980902256958058,1092551085212094,,"1525 Newton St NW",,,,Washington,,DC,20010,US
980902256958058,1160291369304648,,"1525 Newton St NW",,,,Washington,,DC,20010,US
980902256958058,1249696647199145,,"1525 Newton St NW",,,,Washington,,DC,20010,US
976930795946091,1289696854137570,,"701 Maryland Avenue NE",,,,Washington,,DC,20002,US
985764934104319,553317561400491,,"2041 Georgia Ave NW",,,,Washington,,DC,20060,US
967215957608908,950611509071482,,"26B Fairfax Street SE",,,,Leesburg,,VA,20175,US
980577201887269,1279229683648851,,"4 Atlantic Street, SW",,,,Washington,,DC,20032,US
1000047601685886,996758537763515,,"3917 Minnesota Ave NE",,,,Washington,,DC,20019,US
967156820432437,1276182199916444,,"5 Thomas Cir NW",,,,Washington,,DC,20005,US
993962351296479,725060877971150,,"1112 16th St NW #240",,,,Washington,,DC,20036,US
1081030491334688,671699874900293,,"1660 Columbia Road NW",,,,Washington,,DC,20009,US
1111486004109298,834036632030985,,"3400 North 13th Street",,,,Arlington,,VA,22201,US
1100921455050231,683981038233399,,"1649 Good Hope Rd SE",,,,Washington,,DC,20020,US
1069203720699078,908942274584388,,"111 Michigan Ave NW",,,,Washington,,DC,20010,US
1077119213782189,941990903583859,,"1313 New York Avenue, NW BSMT Suite 1",,,,Washington,,DC,20005,US
1111523833465987,898537800432105,,"1251-B Saratoga Ave NE",,,,Washington,,DC,20018,US
1067038842463788,1092756194618999,,"9601 Colesville Road",,,,"Silver Spring",,MD,20901,US
1065211799205229,633623168263940,,"65 Massachusetts Avenue, NW",,,,Washington,,DC,20001,US
1065211799205229,1139106965939659,,"65 Massachusetts Avenue, NW",,,,Washington,,DC,20001,US
1067394282645998,1099219791360979,,"3800 Reservoir Rd",,,,Washington,,DC,20007,US
1136635922647218,562543524311596,,"77 P St NE",,,,Washington,,DC,20002,US
1135534218061193,785890152776040,,"741 8th St SE",,,,Washington,,DC,20003,US
1083435186659207,604721858303896,,"1333 N St NW",,,,Washington,,DC,20005,US
1083435186659207,935485129696113,,"1333 N St NW",,,,Washington,,DC,20005,US
1108677909528551,1202618027693441,,"3912 Georgia Avenue, NW",,,,Washington,,DC,20011,US
1108677909528551,1333682431246542,,"3912 Georgia Avenue, NW",,,,Washington,,DC,20011,US
1114454487063148,1103047411510967,,"1419 Columbia Rd NW",,,,Washington,,DC,20009,US
1114454487063148,1273232122875210,,"1419 Columbia Rd NW",,,,Washington,,DC,20009,US
1124118217580659,895829905770410,,"3045 15th Street, NW",,,,Washington,,DC,20009,US
1185229150152167,834393407905740,,"2041 Martin Luther King Jr. Ave, SE, 4th Floor",,,,Washington,,DC,20020,US
1185229150152167,1078276338322764,,"2041 Martin Luther King Jr. Ave, SE, 4th Floor",,,,Washington,,DC,20020,US
1185229150152167,1219450960862351,,"2041 Martin Luther King Jr. Ave, SE, 4th Floor",,,,Washington,,DC,20020,US
1147438245453131,541907027325035,,"3222 Hubbard Road",,,,Landover,,MD,20785,US
1163433271003395,929361885175005,,"1200 Clifton Street NW",,,,Washington,,DC,20009,US
1178741888896067,1116308991917029,,"501 3rd Street NW",,,,Washington,,DC,20001,US
1185532017859830,1250565194691665,,"2204 Martin Luther King Ave. SE",,,,Washington,,DC,20020,US
1214088150223601,1167767752140850,,"4713 Wisconsin Ave NW",,,,Washington,,DC,20016,US
1214088150223601,1260258325512587,,"4713 Wisconsin Ave NW",,,,Washington,,DC,20016,US
1171342361002389,940212538195830,,"9800 Hastings Drive",,,,"Silver Spring",,MD,20901,US
1221622469804354,777544006426049,,"3924 Minnesota Avenue NE",,,,Washington,,DC,20019,US
1224004543230409,940988880402930,,"828 Evarts Street NE",,,,Washington,,DC,20018,US
1224004543230409,1296924653275525,,"828 Evarts Street NE",,,,Washington,,DC,20018,US
1230176419964750,633948475356537,,"801 17th Street, NE ",,,,Washington,,DC,20002,US
1230176419964750,898004780647297,,"801 17th Street, NE ",,,,Washington,,DC,20002,US
1233218684353968,885249502385725,,"2114 14th St NW",,,,Washington,,DC,20009,US
1190472785985307,970045820687110,,"540 55th Street NE, Room W 101",,,,Washington,,DC,20019,US
1253142566681779,804162820575251,,"1310 Southern Ave., SE",,,,Washington,,DC,20032,US
1253142566681779,1154007819992809,,"1310 Southern Ave., SE",,,,Washington,,DC,20032,US
1246699983418480,988814873768650,,"1474 Columbia Rd NW",,,,Washington,,DC,20009,US
1257555204587862,1068693490671334,,"2375 Elvans Road S.E.",,,,Washington,,DC,20020,US
1208952103088856,584215858451001,,"920 Rhode Island Avenue NE",,,,Washington,,DC,20018,US
1246852239311670,666585505385556,,"2303 14th Street NW",,,,Washington,,DC,20009,US
1243421228505168,1080745784913482,,"4003 Camp Letts Road",,,,Edgewater,,MD,21037,US
1274484805326305,1153279049261324,,"311 47th Street NE",,,,Washington,,DC,20019,US
1282039935063191,1101683690019372,,"1711 V Street, S.E.",,,,Washington,,DC,20020,US
1227472949671102,580857017779168,,"1355 New York Avenue NE",,,,Washington,,DC,20002,US
1236362403126770,1175190163226960,,"3531 Georgia Avenue NW",,,,Washington,,DC,20010,US
1251667421607854,1103297850067355,,"3043 30th St. SE",,,,Washington,,DC,20020,US
1253829866049719,964800187171150,,"1436 U St NW",,,,Washington,,DC,20009,US
1297303621824918,624574598656861,,"2100 New York Avenue NE",,,,Washington,,DC,20002,US
1300669729846678,1199753303956769,,"451 7th Street SW",,,,Washington,,DC,20410,US
1284755060446173,812782874544268,,"4225 6th Street",,,,Washington,,DC,20032,US
1298121495880357,669512480103420,,"1900 Massachusetts Ave SE, Building #13",,,,Washington,,DC,20003,US
1287751772256970,1251263915124950,,"716 I Street SE",,,,Washington,,DC,20003,US
1310277015717903,716573413368445,,"420 East Monroe Avenue",,,,Alexandria,,VA,22301,US
1268199460403994,1272787330877007,,"2118 Ridgecrest Court, SE",,,,Washington,,DC,20020,US
1275244454223169,810081831183407,,"2250 Champlain St NW",,,,Washington,,DC,20009,US
1284995921697963,1255140834443689,,"1500 Galen Street SE",,,,Washington,,DC,20020,US
1327832724639079,967529880147269,,"5032 D St., SE",,,,Washington,,DC,20019,US
1341234037198749,839539921735392,,"4253 Barnaby Road, SE",,,,Washington,,DC,20032,US
1347874758673682,1333682431246536,,"8908 Riggs Rd",,,,Adelphi,,MD,20783,
1347874758673683,1333682431246537,,"344 University Blvd. West",,,,"Silver Spring",,MD,20901,
1347874758673683,1333682431246539,,"344 University Blvd. West",,,,"Silver Spring",,MD,20901,
1347874758673684,1333682431246538,,"324 Kennedy Street NW",,,,Washington,,DC,20011,
1347874758673685,1333682431246540,,"8908 Riggs Road",,,,"Silver Spring",,MD,20783,
1347874758673694,1333682431246549,,"765 Kenilworth Terrace Northeast",,,,Washington,,DC,20019,
1347874758673696,1333682431246551,,"3917 Minnesota Avenue Northeast",,,,Washington,,DC,20019,
1347874758673711,882293888224112,,"3400 North 13th St",,,,Arlington,,VA,22201,
