"id","location_id","attention","address_1","address_2","address_3","address_4","city","region","state_province","postal_code","country","address_services","address_organization"
"539337396364683","1095290768316947","","4065 Minnesota Ave NE","","","","Washington","","DC","20019","US","",""
"563131596144489","891549215171790","","602 N St NW","","","","Washington","","DC","20001","US","",""
"569226787685065","1134996153077734","","9159 Brookville Road","","","","Silver Spring","","MD","20910","US","",""
"588096487639420","1089626392255953","","600 W Street, NE","","","","Washington","","DC","20002","US","",""
"594041340982660","557042258022055","","899 North Capitol St NE","","","","Washington","","DC","20002","US","",""
"591926459523505","843887752849047","","8720 Georgia Avenue, Suite 705","","","","Silver Spring","","MD","20910","US","",""
"595922845737405","1013981933889035","","2307 Martin Luther King Jr Ave SE","","","","Washington","","DC","20020","US","",""
"549781755675450","1303501603402692","","1126 16th St NW","","","","Washington","","DC","20036","US","",""
"558771591661145","1120053867178665","","651 Pennsylvania Ave SE","","","","Washington","","DC","20003","US","",""
"581241517123611","957520333540238","","3240 Stanton Road SE","","","","Washington","","DC","20020","US","",""
"583943994142484","1132814241177816,1241825498211259","","2000 14th St NW","","","","Washington","","DC","20009","US","",""
"582637073567743","612821914479266","","20021 Aircraft Drive","","","","Germantown","","MD","20874","US","",""
"584258227889674","816235551756131","","2041 Martin Luther King Ave SE","","","","Washington","","DC","20020","US","",""
"585146293887120","1331394191570751","","4100 Mohawk Lane","","","","Alexandria","","VA","22309","US","",""
"590277710388420","901594639817796","","3912 Georgia Avenue","","","","Washington","","DC","20011","US","",""
"600023869924758","984130963161577","","3985 Mass Ave SE","","","","Washington","","DC","20019","US","",""
"601829608206464","645897759928377","","700 Princess Street","","","","Alexandria","","VA","22314","US","",""
"607535323277785","557094579799532","","2101 14th Street SE","","","","Washington","","DC","20003","US","",""
"608429847924614","636884985267395","","6825 Georgia Avenue NW","","","","Washington","","DC","20012","US","",""
"592187234976345","727772454332930","","1825 K St NW","","","","Washington","","DC","20006","US","",""
"615559195571512","891065803273009","","1111 14th NW Suite 620","","","","Washington","","DC","20005","US","",""
"615343807301958","1115108116176359","","50 49th Street NE","","","","Washington","","DC","20019","US","",""
"620656622047666","580105202701779","","7603 Georgia Ave NW","","","","Washington","","DC","20012","US","",""
"622792920044728","1293267778021809","","4900 Puerto Rico Avenue NE","","","","Washington","","DC","20017","US","",""
"630319727634327","1091227224514735","","4326 14th Street, NW","","","","Washington","","DC","20011","US","",""
"633831411141650","1178988249328078,918553319355477","","12320 Parklawn Drive","","","","Rockville","","MD","20852","US","",""
"575123767754330","1243562110622958","","2112 Varnum Street, NE","","","","Washington","","DC","20018","US","",""
"572201961943469","855494369304069","","3924 4th Street SE","","","","Washington","","DC","20032","US","",""
"601018594378812","902244835227859","","1217 Good Hope Road SE","","","","Washington","","DC","20020","US","",""
"600596504683790","799734694979867","","1421 37th St NW","","","","Washington","","DC","20057","US","",""
"602770380079783","1261462848590883","","4930 Connecticut Avenue NW","","","","Washington","","DC","20008","US","",""
"620752786504942","613607303207687","","2001 14th St SE","","","","Washington","","DC","20020","US","",""
"623054338448014","1209862604521984","","1342 Florida Avenue NE","","","","Washington","","DC","20002","US","",""
"619132329270259","1200713312530612","","5401 South Dakota Avenue NE","","","","Washington","","DC","20011","US","",""
"617773902702459","938559947702992","","1200 G Street, NW","","","","Washington","","DC","20005","US","",""
"621992063855976","571421925629438","","429 O Street, NW","","","","Washington","","DC","20001","US","",""
"637680055653175","1048770784971224","","400 I St SW","","","","Washington","","DC","20024","US","",""
"641583846560761","1134258246707073","","2601 18th St NE","","","","Washington","","DC","20018","US","",""
"594746745000072","849821356417378","","101 Atlantic Street SE","","","","Washington","","DC","20032","US","",""
"600722845496203","1094057138771894","","330 7th Street NE","","","","Washington","","DC","20002","US","",""
"602013012418112","1198692764026642","","9401 Old Georgetown Road","","","","Bethesda","","MD","20814","US","",""
"614116603807238","967842377045809","","2200 Rhode Island Avenue, NE","","","","Washington","","DC","20018","US","",""
"619195230479285","555733908618539","","75 Hanover Place NW","","","","Washington","","DC","20001","US","",""
"628341810887409","1098092408059985","","155 L Street NW","","","","Washington","","DC","20001","US","",""
"630189093459484","1247065547409159","","3166 Mt Pleasant St. NW","","","","Washington","","DC","20010","US","",""
"638453036562198","1148893965275945","","1156 15th St NW","","","","Washington","","DC","20005","US","",""
"641354258894869","1221541137308778","","926 11th St NW","","","","Washington","","DC","20001","US","",""
"607841321991818","1118017178735628","","1990 K Street NW","","","","Washington","","DC","20006","US","",""
"606691178479516","1021458214239224","","5255 Loughboro Rd NW","","","","Washington","","DC","20016","US","",""
"610628029005570","625420662664147","","1990 K St NW","","","","Washington","","DC","20001","US","",""
"623980338427834","1091354780708194","","1320 Mississippi Avenue, SE","","","","Washington","","DC","20032","US","",""
"634628013094891","1261098666898898","","260 54th Street NE","","","","Washington","","DC","20019","US","",""
"654987694705915","1288243545225450","","4430 Benning Road NE","","","","Washington","","DC","20019","US","",""
"600813147654170","780622753430249","","3020 14th Street NW","","","","Washington","","DC","20009","US","",""
"603637449361122","640477199284806","","1620 N Capitol St NW","","","","Washington","","DC","20002","US","",""
"613821611073899","589160218536849","","500 Indiana Ave NW","","","","Washington","","DC","20001","US","",""
"615754001734322","610544508126672","","1717 Columbia Road NW","","","","Washington","","DC","20009","US","",""
"629637985917430","1245305987898697","","7511 Fordson Road","","","","Alexandria","","VA","22306","US","",""
"632887211171682","825613990987555","","1200 U St NW","","","","Washington","","DC","20009","US","",""
"658580381720705","819741028296646,1233404465582125","","64 New York Ave NE","","","","Washington","","DC","20002","US","",""
"665890077989539","1318371479368083","","1000 Forest Glen Road","","","","Silver Springs","","MD","20901","US","",""
"610099537374299","590471402150942","","33 University Blvd E","","","","Silver Spring","","MD","20901","US","",""
"635895188591728","680369109388099","","3305 Glen Carlyn Road","","","","Falls Church","","VA","22041","US","",""
"636370606993834","648965877017429","","6925 B Willow Street NW","","","","Washington","","DC","20012","US","",""
"641281670998932","1060230665027262","","3029 Martin Luther King, Jr. Ave SE","","","","Washington","","DC","20032","US","",""
"650938280347091","987580985223381","","5625 Connecticut Avenue NW","","","","Washington","","DC","20015","US","",""
"658991189660870","638609559652847","","10056 Dean Dr.","","","","Manassas","","VA","20110","US","",""
"660579084943518","832529372572869","","5335 Wisconsin Ave NW","","","","Washington","","DC","20015","US","",""
"672441536301131","584945568119538","","1041 Wisconsin Ave NW","","","","Washington","","DC","20007","US","",""
"673213518639237","1327146928348308","","2025 M Street","","","","Washington","","DC","20036","US","",""
"618873814452104","625247779378848","","9518 Richmond Hwy","","","","Lorton","","VA","22079","US","",""
"623483554226574","577218861870418","","12196 Sunset Hills Road","","","","Reston","","VA","20190","US","",""
"635194760040908","624908178427639","","2000 14th Street, NW, 5th Floor","","","","Washington","","DC","20009","US","",""
"646572968848504","572608168009697","","1201 New York Ave NW","","","","Washington","","DC","20005","US","",""
"645630295187396","870176486464739","","1667 Good Hope Rd SE","","","","Washington","","DC","20020","US","",""
"656825843412760","681929479292327","","1509 16th St NW","","","","Washington","","DC","20036","US","",""
"668717042532154","865540109803591","","1340 Rhode Island Avenue NE","","","","Washington","","DC","20018","US","",""
"670835715650638","1094898373646373,1117640220112945","","1131 Spring Road, NW","","","","Washington","","DC","20010","US","",""
"672688689633830","1229706459709655","","765 Kenilworth Terrace NE","","","","Washington","","DC","20019","US","",""
"681368099365337","1288638701381373","","1516 Hamilton Street NW","","","","Washington","","DC","20011","US","",""
"685743545045067","980257350381118","","14995 Shady Grove Road, Suite 200","","","","Rockville","","MD","20850","US","",""
"687699147533037","815051886893035","","9440 Marlboro Pike","","","","Upper Marlboro","","MD","20772","US","",""
"630045920855590","970983517110031","","1105 50th St., N.E.","","","","Washington","","DC","20019","US","",""
"635968025390902","1246425051489068","","2531 Sherman Avenue NW","","","","Washington","","DC","20001","US","",""
"636730080252872","803666590300951","","200 Wood Hill Road","","","","Rockville","","MD","20850","US","",""
"648313004102131","1195204292292590","","4719 Marlboro Pike","","","","Capitol Heights","","MD","20743","US","",""
"649938834425031","611309881787759","","1434 Harvard St NW","","","","Washington","","DC","20009","US","",""
"654023672723127","1230040295169640","","821 Howard Rd SE","","","","Washington","","DC","20020","US","",""
"658658328474048","1274660264568428","","6856 Eastern Ave NW, Suite 300","","","","Washington","","DC","20012","US","",""
"669837267515092","1320932553563772","","1901 Evarts St. NE","","","","Washington","","DC","20018","US","",""
"679686776530250","1280629114863869","","2500 14th St NW","","","","Washington","","DC","20003","US","",""
"677738893504468","1116757915659329","","2831 15th St NW","","","","Washington","","DC","20009","US","",""
"678389102808498","591956672701732","","1012 14th Street, NW, Suite 700","","","","Washington","","DC","20005","US","",""
"686044100917049","849014976212155","","2711 Connecticut Ave NW","","","","Washington","","DC","20008","US","",""
"697965079239989","636848661261240","","2375 Elvans Rd. SE","","","","Washington","","DC","20020","US","",""
"719391470274062","969410719625582","","115 Atlantic Street SW","","","","Washington","","DC","20032","US","",""
"730523059624038","1091301498101680","","15245 Shady Grove Road","","","","Rockville","","MD","20850","US","",""
"734118238049434","634604766992517","","3211 Sacred Heart Way","","","","Washington","","DC","20010","US","",""
"729329434085690","1219894388566981","","1525 14th St NW Washington","","","","Washington","","DC","20005","US","",""
"736104421703506","991654914903385","","1325 W Street, NW","","","","Washington","","DC","20009","US","",""
"758769305327957","910674112866949","","5650 Oakmont Avenue","","","","Bethesda","","MD","20817","US","",""
"779336728078064","1295065323399805","","1719 13th Street NW","","","","Washington","","DC","20009","US","",""
"734058533341446","670763981366130","","1200 First Street NE","","","","Washington","","DC","20002","US","",""
"738592901369928","852667560851101","","2 18th St SE","","","","Washington","","DC","20003","US","",""
"738845486283459","1285677988970642","","1617 U Street NW","","","","Washington","","DC","20009","US","",""
"770544571990235","897641479895673","","2437 15th St. NW","","","","Washington","","DC","20009","US","",""
"774296813552596","893134611210108","","3194 Bladensburg Rd. NE","","","","Washington","","DC","20018","US","",""
"784159274553672","584764537637617","","2100 Martin Luther King Avenue SE","","","","Washington","","DC","20020","US","",""
"747206662074907","1190992226347185","","801 Pennsylvania Ave SE","","","","Washington","","DC","20003","US","",""
"758202120336301","569762980024499,646112200857058","","1731 Bunker Hill Road, NE","","","","Washington","","DC","20017","US","",""
"766037671807264","1168801998093900","","4450 Wisconsin Avenue NW","","","","Washington","","DC","20016","US","",""
"781650165129368","1283768891049166","","3309 16th St NW","","","","Washington","","DC","20010","US","",""
"791236860915802","1089431432526337","","6600 Laurel Bowie Road","","","","Bowie","","MD","20715","US","",""
"738949392742485","1166859805809640","","1301 Pennsylvania Ave SE","","","","Washington","","DC","20003","US","",""
"779204777927363","1295303526129555","","2812 Pennsylvania Avenue SE","","","","Washington","","DC","20020","US","",""
"783095640816156","857483351214468","","1413 Girard Street, NW","","","","Washington","","DC","20009","US","",""
"790302097009149","978435202763698","","3845 South Capitol Street","","","","Washington","","DC","20032","US","",""
"787251745409957","571282409737911","","624 9th St NW","","","","Washington","","DC","20001","US","",""
"800432356809465","1263123342132362","","4017 Minnesota Avenue, NE","","","","Washington","","DC","20019","US","",""
"806451458289654","1155644945880700","","1320-1322 Anacostia Road SE","","","","Washington","","DC","20010","US","",""
"810499733508160","637109273390087","","4501 Grant Street NE","","","","Washington","","DC","20019","US","",""
"808918445165876","950665445636496","","5028 Wisconsin Ave NW","","","","Washington","","DC","20016","US","",""
"750305071337867","1216896137119914","","6475 New Hampshire Ave","","","","Hyattsville","","MD","20783","US","",""
"750182888138367","991046422392107","","3912 Georgia Ave NW","","","","Washington","","DC","20011","US","",""
"752490816891424","1012693305656130","","901 G Street NW","","","","Washington","","DC","20001","US","",""
"764741814024308","623911698639626","","2900 Newton St NE","","","","Washington","","DC","20018","US","",""
"776210300788898","1220403887966540","","3935 Benning Road NE","","","","Washington","","DC","20019","US","",""
"778820650741473","665537720302910,693867662447380","","1022 Maryland Ave NE","","","","Washington","","DC","20002","US","",""
"787100265241537","1331109090254077","","118 Brookley Ave SW","","","","Washington","","DC","20032","US","",""
"797735121188541","712658990764743","","415 2nd Street NE","","","","Washington","","DC","20002","US","",""
"806915866686912","773036230997063","","2498 Alabama Ave SE","","","","Washington","","DC","20020","US","",""
"812860415472489","802247163324047","","2702 Ontario Rd NW","","","","Washington","","DC","20009","US","",""
"823949607579347","801824083496989","","645 H St NE","","","","Washington","","DC","20002","US","",""
"755465819143078","1125441162012486","","924 G St NW","","","","Washington","","DC","20001","US","",""
"757866573934638","1191044209171136","","11425 Grandview Ave.","","","","Silver Spring","","MD","20902","US","",""
"777280412238157","796898419678236","","2041 Martin Luther King Ave. SE, 3rd Floor","","","","Washington","","DC","20020","US","",""
"782663284558293","1288442867873978","","2907 Martin Luther King Jr Ave SE","","","","Washington","","DC","20032","US","",""
"786143725434715","972271189983680","","9850 Key West Avenue","","","","Rockville","","MD","20850","US","",""
"783162154650070","1061235909513521","","500 K street NE","","","","Washington","","DC","20002","US","",""
"813107616664956","1156298037800579","","4058 Minnesota Ave NE","","","","Washington","","DC","20019","US","",""
"812563382831399","610843915418170","","403 Brightseat Road","","","","Landover","","MD","20785","US","",""
"793670241936758","1250362245990206","","4301 Connecticut Ave NW","","","","Washington","","DC","20008","US","",""
"827787423313811","1006643802398414","","734 University Ave. E.","","","","Silver Spring","","MD","20903","US","",""
"832111145988770","1245500028616073","","3333 14th St NW","","","","Washington","","DC","20010","US","",""
"781385730081935","1209346136301236","","219 Riggs Road","","","","Washington","","DC","20011","US","",""
"787024441457406","1159744769911269","","555 L Street SE","","","","Washington","","DC","20003","US","",""
"792837578790856","1191500192034471","","9850 Key West Ave","","","","Rockville","","MD","20850","US","",""
"797095276624429","1303213322109189","","2301 Martin Luther King Jr. Ave SE","","","","Washington","","DC","20020","US","",""
"793294459218082","935244522535810","","1547 Alabama Avenue SE","","","","Washington","","DC","20032","US","",""
"798296889911424","1175999961148897","","6010 Georgia Ave. NW","","","","Washington","","DC","20011","US","",""
"811181965374068","800464838128526","","2700 Martin Luther King Jr. Avenue SE","","","","Washington","","DC","20032","US","",""
"817796784415201","1182708981110979","","899 N Capitol St NE","","","","Washington","","DC","20002","US","",""
"817367619345113","943694322277545","","1455 Old Bridge Road","","","","Woodbridge","","VA","22192","US","",""
"815678797015870","1129247879259176","","2119 G Street NW","","","","Washington","","DC","20037","US","",""
"818421938661984","810077928064262","","1801 Hamlin Street NE","","","","Washington","","DC","20018","US","",""
"819202547155168","853629829456714","","718 7th Street NW","","","","Washington","","DC","20001","US","",""
"826590658453856","1231651602484835","","1351 Alabama Ave SE","","","","Washington","","DC","20032","US","",""
"842704873804626","1076247615804558","","2315 18th Place NE","","","","Washington","","DC","20018","US","",""
"851618718178592","1269501575509775","","202 Custer Rd","","","","Ft Myer","","VA","22211","US","",""
"855414328374137","1035196061179073","","1630 7th Street NW","","","","Washington","","DC","20001","US","",""
"857323111525060","802167449988638","","1201 S Capitol St SW","","","","Washington","","DC","20003","US","",""
"801589347975855","779234665793356","","2422 North Fillmore Street","","","","Arlington","","VA","22201","US","",""
"801363455011364","1288607908643209,1044411535350668,848643167597481","","425 2nd St NW","","","","Washington","","DC","20001","US","",""
"807937964671680","800069869376535","","3101 Martin Luther King Jr Ave SE","","","","Washington","","DC","20032","US","",""
"838664629382559","853177830631548","","3715 2nd Street, SE","","","","Washington","","DC","20032","US","",""
"852256433731164","841012551878129","","1525 7th St NW","","","","Washington","","DC","20001","US","",""
"853483460126078","979262089777285","","12901 Georgia Avenue","","","","Wheaton","","MD","20906","US","",""
"860655703010429","833804515841086","","1501 Columbia Rd NW","","","","Washington","","DC","20009","US","",""
"868990014453285","1143767333255844","","400 E Street SW","","","","Washington","","DC","20024","US","",""
"872518613530298","626384571287639","","7530 Georgia Ave NW","","","","Washington","","DC","20012","US","",""
"811353031461557","1300354176059967","","2 North, 425 2nd St NW","","","","Washington","","DC","20001","US","",""
"813582059890260","693037857857932","","1338 North Capitol St NW","","","","Washington","","DC","20002","US","",""
"814164678263538","1183173298558849","","601 E St NW","","","","Washington","","DC","20049","US","",""
"836892954781691","903980033462689","","4801 North Capitol Street NE","","","","Washington","","DC","20011","US","",""
"838488296850768","770924552273178","","6301 Greentree Road","","","","Bethesda","","MD","20817","US","",""
"843557435036966","1142163554566402","","71 O St NW","","","","Washington","","DC","20001","US","",""
"847125473770110","767072193495401","","2112 F Street, N.W. Suite 102","","","","Washington","","DC","20037","US","",""
"850376818416729","1205020948348418","","1700 Rhode Island Ave NE","","","","Washington","","DC","20018","US","",""
"851160522085214","766212450574576","","3000 Pennsylvania Avenue, SE","","","","Washington","","DC","20020","US","",""
"848574801946356","826462308173307","","2200 California St NW","","","","Washington","","DC","20008","US","",""
"856199027563788","1117618456680683","","1101 Half Street SW","","","","Washington","","DC","20024","US","",""
"871291920225502","844015447975705","","4606 16th St NW","","","","Washington","","DC","20011","US","",""
"820817860027881","1043993116448952","","110 Irving St., NW","","","","Washington","","DC","20010","US","",""
"826078683584665","888565255284134","","2813 Pennsylvania Avenue SE","","","","Washington","","DC","20020","US","",""
"876562735540483","990754403473385","","7510 Maple Ave","","","","Takoma Park","","MD","20912","US","",""
"886588147175165","1160077532191340","","2600 12th St, NE","","","","Washington","","DC","20018","US","",""
"891932034436755","660130933621147","","1412 Minnesota Ave SE","","","","Washington","","DC","20020","US","",""
"828783992646683","924308059712002","","1204 3rd St NW","","","","Washington","","DC","20001","US","",""
"844556755902460","1179563747654780","","906 H Street NE","","","","Washington","","DC","20002","US","",""
"847222763498596","644250986023852","","4406 Georgia Ave NW","","","","Washington","","DC","20011","US","",""
"855618727774805","1255666996034353","","1338 G Street SE","","","","Washington","","DC","20003","US","",""
"861101318449916","602194922558765","","1377 R St. NW","","","","Washington","","DC","20009","US","",""
"865953449064835","1140130619656796","","1905 E St SE","","","","Washington","","DC","20003","US","",""
"903241230764491","1263054632249689","","P.O. Box 96763","","","","Washington","","DC","20090","US","",""
"854668416527336","1135336670475675","","611 N St NW","","","","Washington","","DC","20001","US","",""
"881121860903887","1159353858034099,1225318904357849","","810 5th Street NW","","","","Washington","","DC","20001","US","",""
"896867524520940","984407158340054","","840 Chesapeake St, SE","","","","Washington","","DC","20032","US","",""
"905102359150495","1300388977460036","","1700 Powder Mill Road","","","","Washington","","DC","20903","US","",""
"906697694533879","590104892784839","","1207 Taylor Street NW","","","","Washington","","DC","20011","US","",""
"907889296977159","920110206749977","","801 7th St., SW","","","","Washington","","DC","20024","US","",""
"845720882826941","1160944456774158","","1400 Florida Ave NE","","","","Washington","","DC","20002","US","",""
"865179689017950","744169816237550","","601 Edgewood St., NE","","","","Washington","","DC","20017","US","",""
"877073319079269","977080631663121","","1627 K St NW","","","","Washington","","DC","20006","US","",""
"875459002132828","1117622155194782","","635 I Street, NE","","","","Washington","","DC","20002","US","",""
"875638713845162","994933787004216","","901 G St NW","","","","Washington","","DC","20001","US","",""
"894904473977360","1281896636126927","","1520 C Street SE","","","","Washington","","DC","20003","US","",""
"896514595534361","765146043026123","","2712 Ontario Road NW","","","","Washington","","DC","20009","US","",""
"905037261346524","1172909242301924","","1438 Rhode Island Avenue NE","","","","Washington","","DC","20018","US","",""
"908923239757928","1125282502738313","","2207 Columbia Pike","","","","Arlington","","VA","22204","US","",""
"907362716425449","982525680938497","","50 Irving St NW","","","","Washington","","DC","20422","US","",""
"878763664887036","1301350893555178","","2616 Martin Luther King Jr. Ave, SE","","","","Washington","","DC","20020","US","",""
"874939942828607","849213479290179","","15th St NW & K Street Northwest","","","","Washington","","DC","20005","US","",""
"889756482266853","891308792501399","","400 50th Street, SE","","","","Washington","","DC","20019","US","",""
"894843846728328","910542962335929","","1957 4th Street, N.E.","","","","Washington","","DC","20002","US","",""
"899930684274562","1133890153315802","","1318 Park Road, NW","","","","Washington","","DC","20010","US","",""
"908399778811072","879688258127018","","714 G St SE","","","","Washington","","DC","20003","US","",""
"864132208245056","987681737906027","","455/457 Florida Avenue, NW","","","","Washington","","DC","20001","US","",""
"901720689361729","1312052344982531","","807 2nd St, NW","","","","Washington","","DC","20001","US","",""
"911296474107046","748318220525650","","4200 Kansas Avenue NW","","","","Washington","","DC","20011","US","",""
"919731849360133","759833313909140","","4609 Polk Street, NE","","","","Washington","","DC","20019","US","",""
"921349453832981","1118558741921381","","3025 Hamaker Court, Suite 450","","","","Fairfax","","VA","22031","US","",""
"922334881715780","959526986815629","","1300 1st St NE","","","","Washington","","DC","20002","US","",""
"876571612697860","961940750930741","","8118 Good Luck Rd","","","","Lanham","","MD","20706","US","",""
"886350074237165","655506922521028,567375676110841","","2300 Martin Luther King Jr Ave SE","","","","Washington","","DC","20020","US","",""
"885324483952778","603618233221428","","6123 Montrose Road","","","","Rockville","","MD","20852","US","",""
"901235817581522","855789547158426","","1876 4th St NE","","","","Washington","","DC","20002","US","",""
"900274267215840","906614178779692","","624 West Church Road","","","","Sterling","","VA","20164","US","",""
"921726586005599","851341569805212","","4201 Connecticut Ave., NW","","","","Washington","","DC","20008","US","",""
"927832223723960","1096962324914778","","1329 9th St NW","","","","Washington","","DC","20001","US","",""
"948876011596931","1146850101014457","","2333 Ontario Rd NW","","","","Washington","","DC","20009","US","",""
"886665393820928","1214902198182923","","915 Rhode Island Avenue","","","","Washington","","DC","20001","US","",""
"895461555540917","1123778264785628","","3160 16th Street NW","","","","Washington","","DC","20010","US","",""
"899256974639291","1096322006760905","","5001 Central Avenue SE","","","","Washington","","DC","20019","US","",""
"905852277360699","678805469856026","","1001 Lawrence St NE","","","","Washington","","DC","20017","US","",""
"904876794525199","953875575104132","","100 Gallatin Street NE","","","","Washington","","DC","20011","US","",""
"910588942573711","1168148392185022","","3023 Hamaker Court","","","","Fairfax","","VA","22031","US","",""
"920336761856377","920613426512187","","1906 Allison Street, NE","","","","Washington","","DC","20018","US","",""
"922203556759265","1077472017140637","","201 E Diamond Avenue, 3rd Floor","","","","Gaithersburg","","MD","20877","US","",""
"954227038164397","647230404089036","","8501 Jericho City Drive","","","","Landover","","MD","20785","US","",""
"925088886359493","538977790426516","","1312 East Capitol Street","","","","Washington","","DC","20003","US","",""
"932159067256505","660448310809163","","1701 14th St NW","","","","Washington","","DC","20009","US","",""
"934712078390448","955494998117578","","919 University Blvd West","","","","Silver Spring","","MD","20903","US","",""
"948106668374078","1166119497090312","","641 46th Street SE, Unit 12","","","","Washington","","DC","20019","US","",""
"955069374299046","1327111523498666","","3401 Martin Luther King Jr. Ave, SE","","","","Washington","","DC","20032","US","",""
"953025761100145","1276820526849172","","901 Rhode Island Ave NW","","","","Washington","","DC","20001","US","",""
"964748335045437","813552424554778","","1101 Vermont Avenue, NW, Suite 1200","","","","Washington","","DC","20005","US","",""
"971053510687489","653251900948938","","1460 Columbia Rd NW","","","","Washington","","DC","20009","US","",""
"913104154166882","890225932378329","","900 Wesley Place SW","","","","Washington","","DC","20024","US","",""
"931950685081380","782008328527476","","219 50th Street, SE","","","","Washington","","DC","20019","US","",""
"932050155937690","945974432326654","","4414 Benning Road NE","","","","Washington","","DC","20019","US","",""
"943403778369532","673635399946198","","441 4th Street NW, 900S","","","","Washington","","DC","20001","US","",""
"962503597996582","877840974751997","","301 Rhode Island Ave NW","","","","Washington","","DC","20001","US","",""
"963915599600617","1293661242956981","","4808 Moorland Lane","","","","Bethesda","","MD","20814","US","",""
"933661659739848","990336044058622","","3412 Dent Place NW","","","","Washington","","DC","20007","US","",""
"965942365087326","932502301190120","","1330 Missouri Street NW","","","","Washington","","DC","20011","US","",""
"980902256958058","1092551085212094,1160291369304648,1249696647199145","","1525 Newton St NW","","","","Washington","","DC","20010","US","",""
"976930795946091","1289696854137570","","701 Maryland Avenue NE","","","","Washington","","DC","20002","US","",""
"985764934104319","553317561400491","","2041 Georgia Ave NW","","","","Washington","","DC","20060","US","",""
"987761447471902","1268130794771257","","75 P St NE","","","","Washington","","DC","20002","US","",""
"929265819012207","574603403182846","","111 Rhode Island Ave NW","","","","Washington","","DC","20001","US","",""
"932726380194203","1299568679392516","","6323 Georgia Ave NW","","","","Washington","","DC","20011","US","",""
"937253430158613","957027288949288","","12301 Old Columbia Pike","","","","Silver Spring","","MD","20904","US","",""
"948986432487608","869647738071923","","1842 Calvert Street NW","","","","Washington","","DC","20009","US","",""
"967215957608908","950611509071482","","26B Fairfax Street SE","","","","Leesburg","","VA","20175","US","",""
"977001215142371","622769721428949","","3522 Connecticut Avenue NW","","","","Washington","","DC","20008","US","",""
"978661487781674","1252910195472458","","2425 Irving Street SE","","","","Washington","","DC","20020","US","",""
"984182916936531","1319160943243149,583377819980477","","2938 Prosperity Ave","","","","Fairfax","","VA","22031","US","",""
"991176644412035","818731653276709","","601 Division Avenue NE","","","","Washington","","DC","20019","US","",""
"955556279982214","836560118683353","","3321 11th St NW","","","","Washington","","DC","20010","US","",""
"975281860908132","852062736759123","","12301 Old Columbia Pike, Suite 200","","","","Silver Spring","","MD","20904","US","",""
"974532674780263","771442194435641","","14412 Old Mill Road Suite #201","","","","Upper Marlboro","","MD","20772","US","",""
"980577201887269","1279229683648851","","4 Atlantic Street, SW","","","","Washington","","DC","20032","US","",""
"1000047601685886","996758537763515","","3917 Minnesota Ave NE","","","","Washington","","DC","20019","US","",""
"1007422500157066","566932797594098","","6323 Georgia Ave","","","","Washington","","DC","20011","US","",""
"967156820432437","1276182199916444","","5 Thomas Cir NW","","","","Washington","","DC","20005","US","",""
"976431501861680","944001764606866","","2000 Channing St NE","","","","Washington","","DC","20018","US","",""
"975514710645118","1062849514501246","","801 Buchanan St NE","","","","Washington","","DC","20017","US","",""
"978180405447467","867088492370349","","4049 South Capitol Street SW","","","","Washington","","DC","20032","US","",""
"989449353309073","789483190572876","","4300 Wisconsin Avenue NW","","","","Washington","","DC","20016","US","",""
"1012625127124230","635902575070564","","439 New Jersey Avenue NW","","","","Washington","","DC","20001","US","",""
"1020202703802817","826158382123021","","2412 Minnesota Avenue, SE","","","","Washington","","DC","20020","US","",""
"958202497334809","883870204820767","","1200 North Capitol Street NW","","","","Washington","","DC","20002","US","",""
"965808119791153","1182283909073233,587809760292730","","1725 Lincoln Rd NE","","","","Washington","","DC","20002","US","",""
"973287636548557","827068480481455","","1345 U Street SE","","","","Washington","","DC","20020","US","",""
"988356905203017","783199676002765,1178936106690461,1241393389350088","","1313 New York Ave NW, Fifth Floor","","","","Washington","","DC","20005","US","",""
"993962351296479","725060877971150","","1112 16th St NW #240","","","","Washington","","DC","20036","US","",""
"998536688934337","873890719454689","","1150 Varnum St NE","","","","Washington","","DC","20017","US","",""
"1008469785413423","1141380228418615","","9506 Richmond Hwy","","","","Lorton","","VA","22079","US","",""
"1015013200161536","661085324813258","","7941 Janna Lee Avenue","","","","Alexandria","","VA","22306","US","",""
"1034208589848107","1256876059595748","","7420 Georgia Avenue NW","","","","Washington","","DC","20012","US","",""
"1033661751080808","1163405927375948","","2523 14th St NW","","","","Washington","","DC","20009","US","",""
"1054881648694219","658610517897796","","3420 14th Street NW","","","","Washington","","DC","20010","US","",""
"1081030491334688","671699874900293","","1660 Columbia Road NW","","","","Washington","","DC","20009","US","",""
"1101868859014899","871232328119150","","P.O. Box 48626","","","","Washington","","DC","20002","US","",""
"1073180239579426","1285941015621805","","3260 R Street NW","","","","Washington","","DC","20007","US","",""
"1087409436140251","685641446710222","","416 Cedar Street NW","","","","Washington","","DC","20012","US","",""
"1088782696848062","1136470398726733","","2509 Good Hope Road SE","","","","Washington","","DC","20020","US","",""
"1102248588896229","645373982298053","","4015 Fielding St","","","","Alexandria","","VA","22309","US","",""
"1107684680662037","753670429342362","","850 26th St., NE","","","","Washington","","DC","20002","US","",""
"1111486004109298","882293888224112,834036632030985","","3400 North 13th Street","","","","Arlington","","VA","22201","US","",""
"1046729196129373","758324816049097","","12800 New Hampshire Ave","","","","Silver Spring","","MD","20904","US","",""
"1064859800913984","1286290424953168","","600 5th St NW","","","","Washington","","DC","20001","US","",""
"1076830583018477","840683017480302","","1008 45th St NE","","","","Washington","","DC","20019","US","",""
"1078609584084302","995317546520269","","1818 New York Ave NE","","","","Washington","","DC","20018","US","",""
"1100921455050231","683981038233399","","1649 Good Hope Rd SE","","","","Washington","","DC","20020","US","",""
"1105631318690559","1215072401279141,867480542956619","","60 O St NW","","","","Washington","","DC","20001","US","",""
"1061063147389149","909412769598597","","1800 Good Hope Road SE","","","","Washington","","DC","20020","US","",""
"1069203720699078","908942274584388","","111 Michigan Ave NW","","","","Washington","","DC","20010","US","",""
"1077119213782189","941990903583859","","1313 New York Avenue, NW BSMT Suite 1","","","","Washington","","DC","20005","US","",""
"1094098920613069","1185094328556228","","4201 Butterworth Place, N.W.","","","","Washington","","DC","20016","US","",""
"1096727323745989","1018253357347462","","1300 New Jersey Avenue NW","","","","Washington","","DC","20001","US","",""
"1098356156192294","1130366462113469","","1234 Massachusetts Ave NW","","","","Washington","","DC","","US","",""
"1105400030033279","1117118492901641","","501 Sligo Avenue","","","","Washington","","DC","20910","US","",""
"1111523833465987","898537800432105","","1251-B Saratoga Ave NE","","","","Washington","","DC","20018","US","",""
"1108283652460531","834696315742469","","3300 Pennsylvania Ave SE","","","","Washington","","DC","20020","US","",""
"1109389476853030","1132222085127471","","1763 Lanier Place NW","","","","Washington","","DC","20009","US","",""
"1118408431799639","1326321443548696","","8794-A Sacramento Drive","","","","Alexandria","","VA","22309","US","",""
"1121657563814047","748854388242171","","200 I St SE","","","","Washington","","DC","20003","US","",""
"1067038842463788","1092756194618999","","9601 Colesville Road","","","","Silver Spring","","MD","20901","US","",""
"1065211799205229","1139106965939659,633623168263940","","65 Massachusetts Avenue, NW","","","","Washington","","DC","20001","US","",""
"1067394282645998","1099219791360979","","3800 Reservoir Rd","","","","Washington","","DC","20007","US","",""
"1071169939843667","1270081732081180","","2041 Martin Luther King Jr. Ave., SE","","","","Washington","","DC","20020","US","",""
"1084485258726986","1114551742239605","","1627 Kenilworth Ave. NE","","","","Washington","","DC","20019","US","",""
"1117577151026544","854967346211154","","4130 Hunt Place, NE","","","","Washington","","DC","20019","US","",""
"1118537712180613","599293678245907","","20501 Georgia Avenue","","","","Brookville","","MD","20833","US","",""
"1118037815416886","1220913087660847","","3720 Martin Luther King Jr Ave SE","","","","Washington","","DC","20032","US","",""
"1124243316484766","1210032943864131","","18905 Kingsview Rd","","","","Germantown","","MD","20874","US","",""
"1136635922647218","562543524311596","","77 P St NE","","","","Washington","","DC","20002","US","",""
"1135534218061193","785890152776040","","741 8th St SE","","","","Washington","","DC","20003","US","",""
"1135876728178306","1275795457873123","","3016 Martin Luther King SE","","","","Washington","","DC","20032","US","",""
"1136480841976895","623386708908164","","1350 49th Street NE","","","","Washington","","DC","20019","US","",""
"1083435186659207","604721858303896,935485129696113","","1333 N St NW","","","","Washington","","DC","20005","US","",""
"1097680104175753","1205691016832902","","2001 Mississippi Ave SE","","","","Washington","","DC","20020","US","",""
"1099647434382612","760606739511356","","12247 Georgia Ave","","","","Silver Spring","","MD","20902","US","",""
"1100885354339948","890802848970199","","5000 Block Nannie Helen Burroughs Ave NE","","","","Washington","","DC","20019","US","",""
"1132309778319947","827272218664674","","900 North Capitol Street NW","","","","Washington","","DC","20001","US","",""
"1136676875598876","877576876041734","","2225 5th Street NE","","","","Washington","","DC","20002","US","",""
"1107370925309577","1218401963055584","","250 E St SW","","","","Washington","","DC","20024","US","",""
"1108677909528551","1202618027693441","","3912 Georgia Avenue, NW","","","","Washington","","DC","20011","US","",""
"1111150315058469","1146962447647430","","1734 7th St. NW","","","","Washington","","DC","20001","US","",""
"1113495856426602","1274752047885511","","1701 Gales Street NE","","","","Washington","","DC","20002","US","",""
"1157320795586111","777359034139686","","3203 Martin Luther King Jr Avenue SE","","","","Washington","","DC","20032","US","",""
"1101918581972089","636167681957227","","611 Edgewood St., NE","","","","Washington","","DC","20017","US","",""
"1106991030101545","1056414203994963","","25 - 53rd Street NE","","","","Washington","","DC","20019","US","",""
"1114454487063148","1103047411510967,1273232122875210","","1419 Columbia Rd NW","","","","Washington","","DC","20009","US","",""
"1120134710893230","785947788193097","","1227 Monroe Street NE","","","","Washington","","DC","20017","US","",""
"1117732063481354","1319844001361667","","330-B S. Virginia Ave.","","","","Falls Church","","VA","22046","US","",""
"1122550863766064","1233404465582125","","64 New York Avenue, NE, 3rd Floor","","","","Washington","","DC","20002","US","",""
"1124118217580659","895829905770410","","3045 15th Street, NW","","","","Washington","","DC","20009","US","",""
"1152665399777698","637684733149897","","2501 18th St NE","","","","Washington","","DC","20018","US","",""
"1165771453663151","1142441892698286","","1221 Taylor Street NW","","","","Washington","","DC","20011","US","",""
"1160738140545330","759315113269853","","1800 Martin Luther King Jr. Avenue SE","","","","Washington","","DC","20020","US","",""
"1171338660943768","1156951251699636","","500 F Street NW","","","","Washington","","DC","20001","US","",""
"1173290860033308","898209455512951","","425 I St, NW, #700","","","","Washington","","DC","20001","US","",""
"1124924875711417","674838894214197","","5100 Wisconsin Ave NW","","","","Washington","","DC","20016","US","",""
"1131930503010436","600295822156667","","2225 M Street NW","","","","Washington","","DC","20037","US","",""
"1159636085127658","752192406551414,1193198730195892","","421 Alabama Ave SE","","","","Washington","","DC","20032","US","",""
"1161047433910831","1171401871170354","","2701 Prosperity Ave","","","","Fairfax","","VA","22031","US","",""
"1168340208506307","1173183937901099","","6811 Kenilworth Avenue","","","","Riverdale","","MD","20737","US","",""
"1181534981962548","1020706673677182","","10001 Rhode Island Ave","","","","College Park","","MD","20740","US","",""
"1183611862388189","572575030404839","","2822-2824 Sherman Avenue, NW","","","","Washington","","DC","20001","US","",""
"1126514711370379","733623340463849","","220 I St NE","","","","Washington","","DC","20002","US","",""
"1149910639608595","1137892633327650","","1628 16th St NW","","","","Washington","","DC","20009","US","",""
"1154324034900477","789492083968992","","3310 Connecticut Ave NW","","","","Washington","","DC","20008","US","",""
"1185229150152167","1219450960862351,1078276338322764,834393407905740","","2041 Martin Luther King Jr. Ave, SE, 4th Floor","","","","Washington","","DC","20020","US","",""
"1193727390444096","818197734902999","","500 K St. NE","","","","Washington","","DC","20002","US","",""
"1134489757092192","1012043594454236","","2525 12th Pl SE","","","","Washington","","DC","20020","US","",""
"1147438245453131","541907027325035","","3222 Hubbard Road","","","","Landover","","MD","20785","US","",""
"1154964431958725","838706856391599","","4600 Livingston Road, SE, Floor#3","","","","Washington","","DC","20032","US","",""
"1156833290388659","1217520405916264","","500 I St NW","","","","Washington","","DC","20001","US","",""
"1163433271003395","929361885175005","","1200 Clifton Street NW","","","","Washington","","DC","20009","US","",""
"1193719191555857","1127198971919902","","2920 Minnesota Ave SE","","","","Washington","","DC","20019","US","",""
"1192742655334915","841663889311858","","1100 4th St SW","","","","Washington","","DC","20024","US","",""
"1146979390497061","754005286138744","","1125 New Jersey Avenue, NW","","","","Washington","","DC","20001","US","",""
"1161395795200773","1157647595052033","","1328 Southern Avenue","","","","Washington","","DC","20032","US","",""
"1161089217309530","1170496916271417","","1413 K St NW","","","","Washington","","DC","20005","US","",""
"1170670104465846","803919860966416","","2210 Adams Place NE","","","","Washington","","DC","20018","US","",""
"1178741888896067","1116308991917029","","501 3rd Street NW","","","","Washington","","DC","20001","US","",""
"1189128756720677","1199113598082869","","2500 Parkers Ln","","","","Alexandria","","VA","22306","US","",""
"1147888602738885","623817892479347","","5413 16th St. NW","","","","Washington","","DC","20011","US","",""
"1169435514871045","1192687808287205","","403 7th Street SE","","","","Washington","","DC","20003","US","",""
"1209762280338535","769953967292170","","1801 East Jefferson St.","","","","Rockville","","MD","20852","US","",""
"1208902727440044","1197859127148279","","3707 Martin Luther King Jr Ave SE","","","","Washington","","DC","20032","US","",""
"1214858041785621","901570423713957","","3210 SE Corporate Woods Drive","","","","Ankeny","","IA","50021","US","",""
"1215798438097456","1281917418518969","","6031 Kansas Avenue NW","","","","Washington","","DC","20011","US","",""
"1160436895350697","908423552645976","","4228 Wisconsin Ave NW","","","","Washington","","DC","20016","US","",""
"1167385181913380","754270075554049","","2115 Ward Court NW","","","","Washington","","DC","20037","US","",""
"1169245618273327","971101638249063","","768 Morton Street, NW","","","","Washington","","DC","20010`","US","",""
"1178793581455590","1069239089485198","","650 Pennsylvania Ave","","","","Washington","","DC","20003","US","",""
"1180774715221118","1118601745413208","","1924 Savannah Terrace SE, Suite C","","","","Washington","","DC","20020","US","",""
"1185532017859830","1250565194691665","","2204 Martin Luther King Ave. SE","","","","Washington","","DC","20020","US","",""
"1198431335179303","750119883782411","","8615 Piney Branch Rd.","","","","Silver Spring","","MD","20901","US","",""
"1199893812178398","774762987300374","","8818 Piney Branch Rd","","","","Silver Spring","","MD","20903","US","",""
"1214088150223601","1260258325512587,1167767752140850","","4713 Wisconsin Ave NW","","","","Washington","","DC","20016","US","",""
"1217002783652146","967601719856630","","8505 Springvale Rd.","","","","Silver Spring","","MD","20910","US","",""
"1218467427350381","1284378916833442","","1331 H St NW","","","","Washington","","DC","20005","US","",""
"1171342361002389","940212538195830","","9800 Hastings Drive","","","","Silver Spring","","MD","20901","US","",""
"1170686671227481","1249100999590019","","8792 Sacramento Drive","","","","Alexandria","","VA","22309","US","",""
"1205010169244537","1104999420030021","","2421 Lawrence St NE","","","","Washington","","DC","20018","US","",""
"1208690380192888","621313880084833","","441 4th St NW","","","","Washington","","DC","20001","US","",""
"1208049298650593","909337693416412","","2709 Popkins Lane","","","","Alexandria","","VA","22306","US","",""
"1221128761880442","1269099704638669","","2401 Virginia Ave NW","","","","Washington","","DC","20037","US","",""
"1221622469804354","777544006426049","","3924 Minnesota Avenue NE","","","","Washington","","DC","20019","US","",""
"1228978427308940","1299289453217378,840736701093471","","305 E St NW","","","","Washington","","DC","20001","US","",""
"1224004543230409","940988880402930,1296924653275525","","828 Evarts Street NE","","","","Washington","","DC","20018","US","",""
"1230176419964750","898004780647297,633948475356537","","801 17th Street, NE","","","","Washington","","DC","20002","US","",""
"1230987348795184","1274248047601637","","2224 E. Fayette St.","","","","Baltimore","","MD","21231","US","",""
"1233218684353968","885249502385725","","2114 14th St NW","","","","Washington","","DC","20009","US","",""
"1178965663078874","897334286466946","","2303 Martin Luther King Jr Ave SE","","","","Washington","","DC","20020","US","",""
"1181749991176525","624397784374194","","128 M St NW","","","","Washington","","DC","20001","US","",""
"1182425200878870","616726566011959","","3400 14th St. NW","","","","Washington","","DC","20010","US","",""
"1190472785985307","970045820687110","","540 55th Street NE, Room W 101","","","","Washington","","DC","20019","US","",""
"1208734333912040","995487732055408","","414 8th Street SE","","","","Washington","","DC","20003","US","",""
"1218912876438090","966006768634994","","4301 9th St SE","","","","Washington","","DC","20032","US","",""
"1243219146160024","1206435323040525","","64 New York Avenue NE, 5th Floor","","","","Washington","","DC","20002","US","",""
"1253142566681779","1154007819992809,804162820575251","","1310 Southern Ave., SE","","","","Washington","","DC","20032","US","",""
"1197672794059993","1333682431246522","","1949 4th Street, N.E.","","","","Washington","","DC","20002","US","",""
"1198866501006562","746894816095911","","4315 3rd St SE","","","","Washington","","DC","20032","US","",""
"1216780850778368","651934751090741","","1667 Good Hope Road SE","","","","Washington","","DC","20020","US","",""
"1219977665502250","758452020301645","","5505 Fifth Street NW","","","","Washington","","DC","20011","US","",""
"1226125883504384","1214403176463678","","6196 Oxon Hill Rd., Suite 340","","","","Oxon Hill","","MD","20745","US","",""
"1246699983418480","988814873768650","","1474 Columbia Rd NW","","","","Washington","","DC","20009","US","",""
"1194113418596458","752194277966513","","645 H Street NE","","","","Washington","","DC","20002","US","",""
"1202515631751130","909420379146552","","1133 N Capitol St NE","","","","Washington","","DC","20002","US","",""
"1224194685885232","1102078052551645","","6525 Belcrest Rd","","","","Hyattsville","","MD","20782","US","",""
"1222560982119785","850095150902601","","2 Teachers Way, Room 200","","","","Gaithersburg","","MD","20877","US","",""
"1227805924003015","1328529263083601","","212 East Capitol St. NE","","","","Washington","","DC","20003","US","",""
"1255733217977362","1013220022014176","","300 Indiana Ave NW","","","","Washington","","DC","20001","US","",""
"1257555204587862","1068693490671334","","2375 Elvans Road S.E.","","","","Washington","","DC","20020","US","",""
"1273928223164382","1315539978603581","","5321 First Place NE","","","","Washington","","DC","20011","US","",""
"1208952103088856","584215858451001","","920 Rhode Island Avenue NE","","","","Washington","","DC","20018","US","",""
"1246852239311670","666585505385556","","2303 14th Street NW","","","","Washington","","DC","20009","US","",""
"1272270265454257","1085137251641611","","9900 Georgia Avenue","","","","Silver Spring","","MD","20902","US","",""
"1219909253043443","923156776542484","","1018 13th Street NW","","","","Washington","","DC","20005","US","",""
"1243421228505168","1080745784913482","","4003 Camp Letts Road","","","","Edgewater","","MD","21037","US","",""
"1255844164471719","999180107217935","","4500 Forbes Boulevard","","","","Lanham","","MD","20706","US","",""
"1274484805326305","1153279049261324","","311 47th Street NE","","","","Washington","","DC","20019","US","",""
"1282039935063191","1101683690019372","","1711 V Street, S.E.","","","","Washington","","DC","20020","US","",""
"1227472949671102","580857017779168","","1355 New York Avenue NE","","","","Washington","","DC","20002","US","",""
"1236362403126770","1175190163226960","","3531 Georgia Avenue NW","","","","Washington","","DC","20010","US","",""
"1253722494546089","842889096789965","","4811 Macarthur Boulevard NW","","","","Washington","","DC","20016","US","",""
"1251667421607854","1103297850067355","","3043 30th St. SE","","","","Washington","","DC","20020","US","",""
"1253829866049719","964800187171150","","1436 U St NW","","","","Washington","","DC","20009","US","",""
"1259176818692119","1293436869828060","","645 Pennsylvania Ave SE","","","","Washington","","DC","20003","US","",""
"1271284297689559","1190288283777701","","14645 Rothgeb Dr.","","","","Rockville","","MD","20850","US","",""
"1282294135634428","1295522145612055","","64 New York Avenue NE, 6th Floor","","","","Washington","","DC","20002","US","",""
"1297303621824918","624574598656861","","2100 New York Avenue NE","","","","Washington","","DC","20002","US","",""
"1300669729846678","1199753303956769","","451 7th Street SW","","","","Washington","","DC","20410","US","",""
"1240791864033331","839573866990556","","1640 Good Hope Road SE","","","","Washington","","DC","20020","US","",""
"1262445634877042","1005588549680598","","1618 Monroe St NW","","","","Washington","","DC","20010","US","",""
"1269109743051226","1129396857159702","","4901 V Street NW","","","","Washington","","DC","20007","US","",""
"1272150847933701","829909214250667","","4201 Minnesota Avenue NE","","","","Washington","","DC","20019","US","",""
"1300764722949681","789780848857990","","1111 Taft St","","","","Rockville","","MD","20850","US","",""
"1296962432755079","1102714062099449","","910 Westminster St NW","","","","Washington","","DC","20001","US","",""
"1302595534585477","1235077423167985","","820 Chesapeake St SE","","","","Washington","","DC","20032","US","",""
"1247783566206049","1204439644410266","","5101 Georgia Avenue NW","","","","Washington","","DC","20011","US","",""
"1251010419994778","825454741717939","","1800 M St NW","","","","Washington","","DC","20036","US","",""
"1255270432383739","778922579379097,1120606829940602","","3939 Benning Rd NE","","","","Washington","","DC","20019","US","",""
"1274085308173654","1266181157379469","","1470 Irving St. NW","","","","Washington","","DC","20010","US","",""
"1269400119905133","602400615052275","","300 New Jersey N.W.","","","","Washington","","DC","20001","US","",""
"1284755060446173","812782874544268","","4225 6th Street","","","","Washington","","DC","20032","US","",""
"1288449182200752","933666460806255","","1310 Southern Ave SE, Suite G082","","","","Washington","","DC","20032","US","",""
"1298121495880357","669512480103420","","1900 Massachusetts Ave SE, Building #13","","","","Washington","","DC","20003","US","",""
"1303693591596344","1264887939520326","","500 Indiana Avenue, NW","","","","Washington","","DC","20001","US","",""
"1307815912510000","831473206652840","","3600 Brightseat Rd","","","","Glenarden","","MD","20706","US","",""
"1309544141702061","861950181964621","","2901 14th St NW","","","","Washington","","DC","20009","US","",""
"1319953528418759","669898504214935","","815 Florida Ave NW","","","","Washington","","DC","20001","US","",""
"1287751772256970","1251263915124950","","716 I Street SE","","","","Washington","","DC","20003","US","",""
"1290991526110391","854230368107837","","2301 L Street NW","","","","Washington","","DC","20037","US","",""
"1302050715895903","573970502850349","","8757 Georgia Ave","","","","Silver Spring","","MD","20910","US","",""
"1310277015717903","716573413368445","","420 East Monroe Avenue","","","","Alexandria","","VA","22301","US","",""
"1306451793543777","1317058386900282","","7978-B New Hampshire Ave.","","","","Hyattesville","","MD","20783","US","",""
"1311412862326621","1231381914283530","","2410 17th St NW","","","","Washington","","DC","20009","US","",""
"1319227052535848","1193878881902253","","1733 T Street SE","","","","Washington","","DC","20001","US","",""
"1329526304224045","967598687864523","","3660 Alabama Avenue SE","","","","Washington","","DC","20020","US","",""
"1268199460403994","1272787330877007","","2118 Ridgecrest Court, SE","","","","Washington","","DC","20020","US","",""
"1271364189985979","1078875042301972","","8151 15th Ave","","","","Langley Park","","MD","20783","US","",""
"1275244454223169","810081831183407","","2250 Champlain St NW","","","","Washington","","DC","20009","US","",""
"1284995921697963","1255140834443689","","1500 Galen Street SE","","","","Washington","","DC","20020","US","",""
"1298660539385549","1092715705970916","","4125 Albemarle St NW","","","","Washington","","DC","20016","US","",""
"1302571910221088","601572087337202","","57 O St NW","","","","Washington","","DC","20001","US","",""
"1327832724639079","967529880147269","","5032 D St., SE","","","","Washington","","DC","20019","US","",""
"1339220331835131","783704808784700","","1400 Decatur St NW","","","","Washington","","DC","20011","US","",""
"1281663538200725","850977498591612","","3851 Alabama Ave SE","","","","Washington","","DC","20020","US","",""
"1298821331716682","1239287635408868","","2419 Minnesota Ave SE","","","","Washington","","DC","20020","US","",""
"1318803050607131","893470451792465","","5936 Martin Luther King Jr., Hwy","","","","Seat Pleasant","","MD","20743","US","",""
"1336997836830511","1320760535782101","","2200 S Dakota Ave NE","","","","Washington","","DC","20018","US","",""
"1341234037198749","839539921735392","","4253 Barnaby Road, SE","","","","Washington","","DC","20032","US","",""
"1341879210766190","1123231976798921","","900 Rhode Island Ave NE","","","","Washington","","DC","20018","US","",""
"1347874758673670","1091350492556485","","1920 G Street NW","","","","Washington","","DC","20006","US","",""
"1347874758673671","","","near pvr cinema,chandkheda","","","","Ankeny","","IA","380005","US","",""
"1347874758673672","","","","","","","","","","","US","",""
"1347874758673673","","","1700 Good Hope Road SE","","","","Washington","","DC","20020","US","",""
"1347874758673674","","","1525 7th Street, N.W.","","","","Washington","","DC","20001","US","",""
"1347874758673675","","","1700 Good Hope Rd SE","","","","Washington","","DC","20020","US","",""
"1347874758673676","","","3000 Washington Boulevard","","","","Baltimore","","MD","21230","US","",""
"1347874758673677","","","near pvr cinema,chandkheda - edit","","","","Langley Park","","IA","380005","US","",""
"1347874758673678","","","near pvr cinema,chandkheda_edit","","","","Silver Spring","","VA","380015","US","",""
"1347874758673679","","","25 4d square mall","","","","Baltimore","","DC","380015","US","",""
"1347874758673680","","","1377 R St NW, Suite 200","","","","Washington","","DC","20009","US","",""
"1347874758673681","","","1525 14th St NW","","","","Washington","","DC","20005","US","",""
"1347874758673682","","","8908 Riggs Rd","","","","Adelphi","","MD","20783","","",""
"1347874758673683","","","344 University Blvd. West","","","","Silver Spring","","MD","20901","","",""
"1347874758673684","","","324 Kennedy Street NW","","","","Washington","","DC","20011","","",""
"1347874758673685","","","8908 Riggs Road","","","","Silver Spring","","MD","20783","","",""
"1347874758673686","","","1200 G Street, NW , Suite #725","","","","Washington","","DC","20005","","",""
"1347874758673687","","","1200 G Street, NW • Suite #725","","","","Washington","","DC","20005","","",""
"1347874758673688","","","null","","","","null","","null","null","","",""
"1347874758673689","","","14500 Layhill Road","","","","Silver Spring","","MD","20906","","",""
"1347874758673690","","","810 First St NE #900","","","","Washington","","DC","20002","","",""
"1347874758673691","","","1647 Benning Road Northeast #303","","","","Washington","","DC","20002","","",""
"1347874758673692","","","1201 Brentwood Road Northeast","","","","Washington","","DC","20018","","",""
"1347874758673693","","","1060 Brentwood Road Northeast","","","","Washington","","DC","20018","","",""
"1347874758673694","","","765 Kenilworth Terrace Northeast","","","","Washington","","DC","20019","","",""
"1347874758673695","","","3924 Minnesota Avenue Northeast","","","","Washington","","DC","20019","","",""
"1347874758673696","","","3917 Minnesota Avenue Northeast","","","","Washington","","DC","20019","","",""
"1347874758673697","","","1816 12th Street Northwest","","","","Washington","","DC","20009","","",""
"1347874758673698","","","2041 Martin Luther King Jr Ave SE Suite 300","","","","Washington","","DC","20020","","",""
"1347874758673699","","","2831 15th Street NW,","","","","Washington","","DC","20009","","",""
"1347874758673700","","","2970 Belcrest Center Drive, Unit 301","","","","Hyattsville","","MD","20782","","",""
"1347874758673701","","","5859 Allentown Way","","","","","","MD","20748","","",""
"1347874758673702","","","810 New Jersey Ave NW","","","","Washington","","DC","20001","","",""
"1347874758673703","","","2619 Bladensburg Rd NE","","","","Washington","","DC","20018","","",""
"1347874758673704","","","12247 Georgia Ave.","","","","Silver Spring","","MD","20902","","",""
"1347874758673705","","","1140 Varnum St NE","","","","Washington","","DC","20018","","",""
"1347874758673706","","","1140 Varnum Street NE","","","","Washington","","DC","20018","","",""
"1347874758673707","","","1150 Varnum Street, NE 2nd floor","","","","Washington","","DC","20018-3262","","",""
"1347874758673708","","","75 Hanover Place NW","","","","Washington","","DC","20001","","",""
"1347874758673709","","","6420 Rockledge Dr","","","","Bethesda","","MD","20817","","",""
"1347874758673710","","","8600 Old Georgetown Rd","","","","Bethesda","","MD","20814","","",""
"1347874758673711","","","3400 North 13th St","","","","Arlington","","VA","22201","","",""
"1347874758673712","","","1400 1st Street NW","","","","Washington","","DC","20001","","",""
"1347874758673713","","","640 Anacostia Ave., NE","","","","Washington","","DC","20019","","",""
"1347874758673714","","","4501 Lee Street NE","","","","Washington","","DC","20019","","",""
"1347874758673715","","","Children's National Hospital 111 Michigan Ave NW","","","","Washington","","DC","20010","","",""
"1347874758673716","","","1214 I Street S.E., Suite 11","","","","Washington","","DC","20003","","",""
"1347874758673717","","","3194 Bladensburg Road NE, Suite B","","","","Washington","","DC","20018","","",""
"1347874758673718","","","200-210 55th Street, NE","","","","Washington","","DC","20019","","",""
"1347874758673719","","","1214 I Street SE, Suite 11","","","","Washington","","DC","20003","","",""
"1347874758673720","","","2100 New York Avenue, NE","","","","Washington","","DC","20002","","",""
"1347874758673721","","","2626 Pennsylvania Avenue NW","","","","Washington","","DC","20037","","",""
"1347874758673722","","","3335 Sherman Avenue NW","","","","Washington","","DC","20010`","","",""
"1347874758673723","","","2300 Martin Luther King Jr Avenue, SE","","","","Washington","","DC","20020","","",""
"1347874758673724","","","1629 K Street NW","","","","Washington","","DC","20006","","",""
"1347874758673725","","","421 Alabama a Avenue SE","","","","Washington","","DC","20032","","",""
"1347874758673726","","","1618 Monroe Street, NW","","","","Washington","","DC","20010","","",""
"1347874758673727","","","1818 New York Avenue, NE","","","","Washington","","DC","20018","","",""
"1347874758673728","","","9901 Medical Center Drive","","","","Rockville","","MD","20850","","",""
"1347874758673729","","","11890 Healing Way","","","","Silver Spring","","MD","20904","","",""
"1347874758673730","","","11711 Livingston Road","","","","","","MD","20744","","",""
"1347874758673731","","","9909 Medical Center Drive","","","","Rockville","","MD","20850","","",""
"1347874758673732","","","7600 Carroll Avenue","","","","Takoma Park","","MD","20912","","",""
"1347874758673733","","","7610 Carroll Avenue","","","","Takoma Park","","MD","20912","","",""
"1347874758673734","","","8301 Barron Street","","","","Silver Spring","","MD","20912","","",""
"1347874758673735","","","831 University Boulevard East","","","","Silver Spring","","MD","20903","","",""
"1347874758673736","","","1618 Monroe Street NW","","","","Washington","","DC","20010","","",""
"1347874758673737","","","924 G Street NW","","","","Washington","","DC","20001","","",""
"1347874758673738","","","14901 Broschart Road","","","","Rockville","","MD","20850","","",""
"1347874758673739","","","1400 Mercantile Lane","","","","Upper Marlboro","","MD","20774","","",""
"1347874758673740","","","6255 Sunset Boulevard, 21st Fl.","","","","","","","","","",""
"1347874758673741","","","2141 K Street, NW","","","","Washington","","DC","20037","","",""
"1347874758673742","","","2355-B Mill Road","","","","Alexandria","","VA","22314","","",""
"1347874758673743","","","0 Thompsons Alley","","","","Alexandria","","VA","22314","","",""
"1347874758673744","","","6188 Oxon Hill Road","","","","Oxon Hill","","MD","null","","",""
"1347874758673745","","","8807 Colesville Road","","","","Silver Spring","","MD","20910","","",""
"1347874758673746","","","2421 Linden Lane","","","","Silver Spring","","MD","20910","","",""
"1347874758673747","","","10709 Indian Head Highway","","","","","","MD","20744","","",""
"1347874758673748","","","10905 Fort Washington Road","","","","","","MD","20744","","",""
"1347874758673749","","","11886 Healing Way","","","","Silver Spring","","MD","20904","","",""
"1347874758673750","","","1170 Livingston Road","","","","","","MD","20744","","",""
"1347874758673751","","","11701 Livingston Road","","","","Silver Spring","","MD","20744","","",""
"1347874758673752","","","12008 Cherry Hill Road","","","","Silver Spring","","MD","20904","","",""
"1347874758673753","","","12041 Bournefield Way","","","","Silver Spring","","MD","20904","","",""
"1347874758673754","","","12501 Prosperity Drive","","","","Silver Spring","","MD","20904","","",""
"1347874758673755","","","6000 Executive Boulevard","","","","Silver Spring","","MD","20852","","",""
"1347874758673756","","","12301 Academy Way","","","","Rockville","","MD","20852","","",""
"1347874758673757","","","750 Rockville Pike","","","","Rockville","","MD","20852","","",""
"1347874758673758","","","13994","","","","","","MD","20707","","",""
"1347874758673759","","","14421 Baltimore Avenue","","","","","","MD","20707","","",""
"1347874758673760","","","9905 Medical Center Drive","","","","Rockville","","MD","20850","","",""
"1347874758673761","","","9715 Medical Center Drive","","","","Rockville","","MD","20850","","",""
"1347874758673762","","","9601 Blackwell Road","","","","Rockville","","MD","20850","","",""
"1347874758673763","","","9711 Medical Center Drive","","","","Rockville","","MD","20850","","",""
"1347874758673764","","","14915 Broschart Road","","","","Rockville","","MD","20850","","",""
"1347874758673765","","","820 W. Diamond Avenue","","","","Gaithersburg","","MD","20878","","",""
"1347874758673766","","","15215 Shady Grove Road","","","","Rockville","","MD","20850","","",""
"1347874758673767","","","15225 Shady Grove Road","","","","Rockville","","MD","20850","","",""
"1347874758673768","","","117 Ellington Boulevard","","","","Gaithersburg","","MD","20878","","",""
"1347874758673769","","","201 Perry Parkway","","","","Gaithersburg","","MD","20877","","",""
"1347874758673770","","","820 West Diamond Avenue","","","","Gaithersburg","","MD","20878","","",""
"1347874758673771","","","6 Montgomery Village Avenue","","","","Gaithersburg","","MD","20879","","",""
"1347874758673772","","","19825 Frederick Road","","","","Germantown","","MD","20876","","",""
"1347874758673773","","","19731 Germantown Road","","","","Germantown","","MD","20874","","",""
"1347874758673774","","","19735 Germantown Road","","","","Germantown","","MD","20874","","",""
"1347874758673775","","","20410 Observation Drive","","","","Germantown","","MD","20876","","",""
"1347874758673776","","","20330 Seneca Meadows Parkway","","","","Germantown","","MD","20876","","",""
"1347874758673777","","","850 Oak Street","","","","","","MD","21703","","",""
"1347874758673778","","","716 Ritchie Road","","","","Capitol Heights","","MD","20743","","",""
"1347874758673779","","","4300 Nebraska Avenue NW","","","","Washington","","DC","20016","","",""
"1347874758673780","","","4302 Baltimore Avenue","","","","null","","MD","20710","","",""
"1347874758673781","","","1400 Decatur Street NW","","","","Washington","","DC","20011","","",""
"1347874758673782","","","1434 Harvard Street, NW","","","","Washington","","DC","20009","","",""
"1347874758673783","","","3335 Sherman Avenue, NW","","","","Washington","","DC","20010","","",""
"1347874758673784","","","1363 Holton Lane","","","","Takoma Park","","MD","20912","","",""
"1347874758673785","","","2204 Rhode Island Avenue NE","","","","Washington","","DC","20018","","",""
"1347874758673786","","","7728 Woodmont Avenue","","","","Bethesda","","MD","20814","","",""
"1347874758673787","","","5033 Wilson Lane","","","","Bethesda","","MD","20814","","",""
"1347874758673788","","","7601 Clarendon Road","","","","","","MD","20814","","",""
"1347874758673789","","","7500 Pearl Street","","","","Bethesda","","MD","20814","","",""
"1347874758673790","","","11236 Triangle Lane","","","","Wheaton","","MD","20902","","",""
"1347874758673791","","","801 Buchanan Street, NE","","","","Washington","","","20017","","",""
"1347874758673792","","","5518 Connecticut Avenue NW","","","","Washington","","DC","20015","","",""
"1347874758673793","","","15800 Crabbs Branch Way","","","","Rockville","","MD","20855","","",""
"1347874758673794","","","7620 Little River Turnpike","","","","","","VA","22003","","",""
"1347874758673795","","","1755 Newton Street NW","","","","Washington","","DC","20010","","",""
"1347874758673796","","","1600 9th Street NW","","","","Washington","","DC","20001","","",""
"1347874758673797","","","410 8th Street NW","","","","Washington","","DC","20004","","",""
"1347874758673798","","","3815 Fort Drive NW","","","","Washington","","DC","20016","","",""
"1347874758673799","","","1819 35th Street NW","","","","Washington","","DC","20007","","",""
"1347874758673800","","","801 7th Street SW","","","","Washington","","DC","20024","","",""
"1347874758673801","","","2130 G Street NW","","","","Washington","","DC","20037","","",""
"1347874758673802","","","(202) 281-3950","","","","Washington","","DC","20002","","",""
"1347874758673803","","","1200 L Street NW","","","","Washington","","DC","20005","","",""
"1347874758673804","","","3950 Chesapeake Street NW","","","","Washington","","DC","20016","","",""
"1347874758673805","","","51 University Boulevard East","","","","Silver Spring","","MD","20901","","",""
"1347874758673806","","","11135 Newport Mill Road","","","","","","MD","20895","","",""
"1347874758673807","","","1901 Randolph Road","","","","Wheaton","","MD","20902","","",""
"1347874758673808","","","12701 Goodhill Road","","","","Silver Spring","","MD","20906","","",""
"1347874758673809","","","11311 Newport Mill Road","","","","Silver Spring","","MD","20902","","",""
"1347874758673810","","","4610 West Frankfort Drive","","","","Rockville","","MD","20853","","",""
"1347874758673811","","","12401 Dalewood Drive","","","","Silver Spring","","MD","20906","","",""
"1347874758673812","","","651 Great Falls Road","","","","Rockville","","MD","20850","","",""
"1347874758673813","","","4700 Medford Drive","","","","","","VA","22003","","",""
"1347874758673814","","","6525 Montrose Street","","","","Alexandria","","VA","22312","","",""
"1347874758673815","","","7000 Cindy Lane","","","","","","VA","22003","","",""
"1347874758673816","","","6066 Leesburg Pike","","","","Falls Church","","VA","22041","","",""
"1347874758673817","","","1100 H Street NW","","","","Washington","","DC","null","","",""
"1347874758673818","","","1025 Connecticut Avenue NW","","","","Washington","","DC","20036","","",""
"1347874758673819","","","713 Maryland Avenue NE","","","","Washington","","DC","20002","","",""
"1347874758673820","","","930 N.. Henry Street","","","","Alexandria","","VA","22314","","",""
"1347874758673821","","","2355-A Mill Road","","","","Alexandria","","VA","22314","","",""
"1347874758673822","","","12247 Georgia Avenue","","","","Silver Spring","","MD","20902","","",""
"1347874758673823","","","8758 Georgia Avenue","","","","Silver Spring","","MD","20910","","",""
"1347874758673824","","","1825 K Street NW","","","","Washington","","DC","20006","","",""
"1347874758673825","","","6301 Ivy Lane","","","","null","","MD","20770","","",""
"1347874758673826","","","P.O. Box 374","","","","Riverdale","","MD","20737","","",""
"1347874758673827","","","16220 Frederick Road","","","","Gaithersburg","","MD","20877","","",""
"1347874758673828","","","1029 Vermont Avenue NW","","","","Washington","","DC","20005","","",""
"1347874758673829","","","515 5th Street NW","","","","Washington","","DC","20001","","",""
"1347874758673830","","","2200 Rhode Island Avenue NE","","","","Washington","","DC","20018","","",""
"1347874758673831","","","901 4th Street, NW","","","","Washington","","DC","20001","","",""
"1347874758673832","","","1101 14th Street, NW","","","","Washington","","DC","20005","","",""
"1347874758673833","","","3401 4th Street, SE","","","","Washington","","DC","20019","","",""
"1347874758673834","","","1100 Harvard Street, NW","","","","Washington","","DC","20009","","",""
"1347874758673835","","","514 V Street, NE","","","","Washington","","DC","20002","","",""
"1347874758673836","","","1001 Lawrence Street, NE","","","","Washington","","DC","20017","","",""
"1347874758673837","","","2812 Pennsylvania Avenue, SE","","","","Washington","","DC","20020","","",""
"1347874758673838","","","1018 Monroe Street, NE","","","","Washington","","DC","20017","","",""
"1347874758673839","","","924 G Street, NW","","","","Washington","","DC","20001","","",""
"1347874758673840","","","3111 Martin Luther King Jr Avenue SE","","","","Washington","","DC","20032","","",""
"1347874758673841","","","1105 50th Street NE","","","","Washington","","DC","20019","","",""
"1347874758673842","","","6833 Hill Park Drive","","","","Lorton","","VA","22079","","",""
"1347874758673843","","","441 4th Street. NW","","","","Washington","","DC","","","",""
"1347874758673844","","","2 North, 425 2nd Street, NW","","","","Washington","","DC","20001","","",""
"1347874758673845","","","3600 John McCormack Road, NE","","","","Washington","","DC","20064","","",""
"1347874758673846","","","3602 John McCormack Road, NE","","","","Washington","","DC","20064","","",""
"1347874758673847","","","425 Mitch Snyder Place (2nd Street) NW","","","","Washington","","DC","20001","","",""
"1347874758673848","","","1200 U Street NW","","","","Washington","","DC","20009","","",""
"1347874758673849","","","5757 Temple Hill Road","","","","","","MD","20748","","",""
"1347874758673850","","","1819 16th Street NW","","","","Washington","","DC","20009","","",""
"1347874758673851","","","601 Raleigh Place SE","","","","Washington","","DC","20032","","",""
"1347874758673852","","","2021 L Street NW","","","","Washington","","DC","20036","","",""
"1347874758673853","","","1623 Connecticut Avenue NW","","","","Washington","","DC","20009","","",""
"1347874758673854","","","100185","","","","Arlington","","VA","22210","","",""
"1347874758673855","","","1 Chevy Chase Circle NW","","","","Washington","","DC","20015","","",""
"1347874758673856","","","P.O. Box 42043","","","","Washington","","DC","20015","","",""
"1347874758673857","","","1601 18th Street NW","","","","Washington","","DC","20009","","",""
"1347874758673858","","","1820 Connecticut Avenue NW","","","","Washington","","DC","20009","","",""
"1347874758673859","","","3722 12th Street NE","","","","Washington","","DC","20017","","",""
"1347874758673860","","","1317 G Street NW","","","","Washington","","DC","20005","","",""
"1347874758673861","","","22201 P Street NW","","","","Washington","","DC","20037","","",""
"1347874758673862","","","3341 Benning Road NE","","","","Washington","","DC","20019","","",""
"1347874758673863","","","2101 Shadyside Avenue","","","","null","","MD","20746","","",""
"1347874758673864","","","2522 Minnesota Avenue SE","","","","Washington","","DC","20020","","",""
"1347874758673865","","","500 Indiana Avenue NW","","","","Washington","","DC","20001","","",""
"1347874758673866","","","410 E Street NW","","","","Washington","","DC","20001","","",""
"1347874758673867","","","3009 G Street SE","","","","Washington","","DC","20019","","",""
"1347874758673868","","","1236 Columbia Road NW","","","","Washington","","DC","20009","","",""
"1347874758673869","","","3000 Connecticut Avenue NW","","","","Washington","","DC","20008","","",""
"1347874758673870","","","303 South Maple Avenue","","","","Falls Church","","VA","22046","","",""
"1347874758673871","","","P.O. Box 60682","","","","Washington","","DC","20039","","",""
"1347874758673872","","","805 15th Street NW","","","","Washington","","DC","20005","","",""
"1347874758673873","","","2525 12th Place, SE","","","","Washington","","DC","20020","","",""
"1347874758673874","","","1730 Lanier Place NW","","","","Washington","","DC","20009","","",""
"1347874758673875","","","309 E Street NW","","","","Washington","","DC","20001","","",""
"1347874758673876","","","1631 Euclid Street NW","","","","Washington","","DC","20009","","",""
"1347874758673877","","","4306 Evergreen Lane","","","","Annandale","","VA","22003","","",""
"1347874758673878","","","7700 Little Turnpike","","","","Annandale","","VA","22003","","",""
"1347874758673879","","","15451 Lee Highway","","","","","","VA","20121","","",""
"1347874758673880","","","847-J Quince Orchard Boulevard","","","","Gaithersburg","","MD","20878","","",""
"1347874758673881","","","8430 Glenmar Road","","","","","","MD","21043","","",""
"1347874758673882","","","700 Buckingham Drive","","","","Silver Spring","","MD","20901","","",""
"1347874758673883","","","14631 Lee Highway","","","","","","VA","20121","","",""
"1347874758673884","","","820 Bestgate Road","","","","","","MD","21401","","",""
"1347874758673885","","","10632 Little Patuxent Parkway","","","","","","MD","21044","","",""
"1347874758673886","","","8561 Fenton Street","","","","Silver Spring","","MD","20910","","",""
"1347874758673887","","","1447 York Road","","","","","","MD","21093","","",""
"1347874758673888","","","1701 Clarendon Boulevard","","","","Arlington","","VA","22209","","",""
"1347874758673889","","","1411 K Street NW","","","","Washington","","DC","20005","","",""
"1347874758673890","","","1005 Bunkerhill Road NE","","","","Washington","","DC","20017","","",""
"1347874758673891","","","5606 Dower House Road","","","","Upper Marlboro","","MD","20772","","",""
"1347874758673892","","","14703 Avery Road","","","","Rockville","","MD","20853","","",""
"1347874758673893","","","1407 Avery Road","","","","Rockville","","MD","20853","","",""
"1347874758673894","","","14705 Avery Road","","","","Rockville","","MD","20853","","",""
"1347874758673895","","","75 P Street NE","","","","Washington","","DC","20002","","",""
"1347874758673896","","","720 North Saint Asaph Street","","","","Alexandria","","VA","22314","","",""
"1347874758673897","","","PO Box 7556","","","","Arlington","","VA","22207","","",""
"1347874758673898","","","3526 Massachusetts Avenue NW","","","","Washington","","DC","20007","","",""
"1347874758673899","","","4105 First Street SE","","","","Washington","","DC","20032","","",""
"1347874758673900","","","816 Connecticut Avenue NW","","","","Washington","","DC","20006","","",""
"1347874758673901","","","1910 Massachusetts Avenue SE","","","","Washington","","DC","20003","","",""
"1347874758673902","","","3939 Benning Road NE","","","","Washington","","DC","20019","","",""
"1347874758673903","","","220 I Street NE","","","","Washington","","DC","20002","","",""
"1347874758673904","","","4201 Butterworth Place, N.W.","","","","Washington","","DC","20016","","",""
"1347874758673905","","","3030 12th Street NE","","","","Washington","","DC","20017","","",""
"1347874758673906","","","4400 MacArthur Boulevard NW","","","","Washington","","DC","20007","","",""
"1347874758673907","","","1 East Luray Avenue","","","","Washington","","DC","22301","","",""
"1347874758673908","","","3001 Wisconsin Avenue NW","","","","Washington","","DC","20016","","",""
"1347874758673909","","","4901 Eastern Avenue","","","","Hyattsville","","MD","20782","","",""
"1347874758673910","","","1422 Massachusetts Avenue SE","","","","Washington","","DC","20003","","",""
"1347874758673911","","","124 15th Street SE","","","","Washington","","DC","20003","","",""
"1347874758673912","","","1250 H Street NW","","","","Washington","","DC","20005","","",""
"1347874758673913","","","4201 Albemarle Street NW","","","","Washington","","DC","20016","","",""
"1347874758673914","","","3211 Sacred Heart Way NW","","","","Washington","","DC","20010","","",""
"1347874758673915","","","1621 Park Road NW","","","","Washington","","DC","20010","","",""
"1347874758673916","","","1500 16th Street NW","","","","Washington","","DC","20036","","",""
"1347874758673917","","","65 Massachusetts Avenue NW","","","","Washington","","DC","20001","","",""
"1347874758673918","","","1526 Pennsylvania Avenue SE","","","","Washington","","DC","20003","","",""
"1347874758673919","","","425 2nd Street NW","","","","Washington","","DC","20001","","",""
"1347874758673920","","","6113 Breezewood Court","","","","Greenbelt","","MD","20770","","",""
"1347874758673921","","","810 Potomac Avenue SE","","","","Washington","","DC","20003","","",""
"1347874758673922","","","2601 & 2603 Naylor Road SE","","","","Washington","","DC","20020","","",""
"1347874758673923","","","603 Addison Road South","","","","Capitol Heights","","MD","20743","","",""
"1347874758673924","","","12250-C Wilkins Avenue","","","","Rockville","","MD","20850","","",""
"1347874758673925","","","112 West Montgomery Avenue","","","","Rockville","","MD","20850","","",""
"1347874758673926","","","1010 Wayne Avenue","","","","Silver Spring","","MD","20910","","",""
"1347874758673927","","","10409 Rutland Place","","","","Adelphi","","MD","20783","","",""
"1347874758673928","","","2122 Mura Street","","","","Baltimore","","MD","21213","","",""
"1347874758673929","","","6226 Stoneham Court","","","","Bethesda","","MD","20817","","",""
"1347874758673930","","","4110 Torque Street","","","","Capitol Heights","","MD","20747","","",""
"1347874758673931","","","7009 Fairwood Road","","","","Hyattsville","","MD","20784","","",""
"1347874758673932","","","1812 64th Avenue","","","","Hyattsville","","MD","20785","","",""
"1347874758673933","","","1109 Broadwood Drive","","","","Rockville","","MD","20851","","",""
"1347874758673934","","","13205 Superior Street","","","","Rockville","","MD","20853","","",""
"1347874758673935","","","1914 Lewis Avenue","","","","Rockville","","MD","20851","","",""
"1347874758673936","","","2801 Weller Road","","","","Silver Spring","","MD","20906","","",""
"1347874758673937","","","3832 Wendy Lane","","","","Silver Spring","","MD","20906","","",""
"1347874758673938","","","918 North Belgrade Road","","","","Silver Spring","","MD","20902","","",""
"1347874758673939","","","12110 Atherton Drive","","","","Silver Spring","","MD","20902","","",""
"1347874758673940","","","237 Hannes Street","","","","Silver Spring","","MD","20901","","",""
"1347874758673941","","","8900 Ellsworth Court","","","","Silver Spring","","MD","20910","","",""
"1347874758673942","","","912 North Belgrade Road","","","","Silver Spring","","MD","20902","","",""
"1347874758673943","","","1123 Chickasaw Drive","","","","Silver Spring","","MD","20903","","",""
"1347874758673944","","","2934 Bellevue Terrace NW","","","","Washington","","DC","20016","","",""
"1347874758673945","","","1228 M Street NW","","","","Washington","","DC","20005","","",""
"1347874758673946","","","4312 Garrison Street NW","","","","Washington","","DC","20016","","",""
"1347874758673947","","","45 New York Avenue NW","","","","Washington","","DC","20001","","",""
"1347874758673948","","","1318 Delafield Place NW","","","","Washington","","DC","20011","","",""
"1347874758673949","","","1314 Hamlin Street NE","","","","Washington","","DC","20017","","",""
"1347874758673950","","","4609 Benning Road SE","","","","Washington","","DC","20019","","",""
"1347874758673951","","","1443 Channing Street","","","","Washington","","DC","20018","","",""
"1347874758673952","","","4804 14th Street NW","","","","Washington","","DC","20011","","",""
"1347874758673953","","","310 Shepherd Street NW","","","","Washington","","DC","20011","","",""
"1347874758673954","","","1119 45th Street NE","","","","Washington","","DC","20019","","",""
"1347874758673955","","","720 Adrian Street SE","","","","Washington","","DC","20019","","",""
"1347874758673956","","","4208 Eades Street NE","","","","Washington","","DC","20019","","",""
"1347874758673957","","","2536 11th Street NW","","","","Washington","","DC","20001","","",""
"1347874758673958","","","4600 Central Avenue NE","","","","Washington","","DC","20019","","",""
"1347874758673959","","","1335 Maple View Place SE","","","","Washington","","DC","20020","","",""
"1347874758673960","","","1800 Plymouth Street NW","","","","Washington","","DC","20012","","",""
"1347874758673961","","","3326 Oxon Run Road SE","","","","Fort Washington","","DC","20032","","",""
"1347874758673962","","","1516 Olive Street NE","","","","Washington","","DC","20019","","",""
"1347874758673963","","","1037 Evarts Street NE","","","","Washington","","DC","20018","","",""
"1347874758673964","","","1305 T Street NW","","","","Washington","","DC","20009","","",""
"1347874758673965","","","615 Buchanan Street NE","","","","Washington","","DC","20017","","",""
"1347874758673966","","","5900 Moreland Street NW","","","","Washington","","DC","20019","","",""
"1347874758673967","","","611 57th Street NE","","","","Washington","","DC","20019","","",""
"1347874758673968","","","1405A Howard Road SE","","","","Washington","","DC","20020","","",""
"1347874758673969","","","4004 Blaine Street NE","","","","Washington","","DC","20019","","",""
"1347874758673970","","","1235 Irving Street NE","","","","Washington","","DC","20017","","",""
"1347874758673971","","","4345 Wisconsin Avenue MW","","","","Washington","","DC","20016","","",""
"1347874758673972","","","1807 3rd Street NE","","","","Washington","","DC","20002","","",""
"1347874758673973","","","4705 7th Street NE","","","","Washington","","DC","20019","","",""
"1347874758673974","","","1618 26th Place SE","","","","Washington","","DC","20020","","",""
"1347874758673975","","","910 Southern Avenue SE","","","","Washington","","DC","20032","","",""
"1347874758673976","","","3100 26th Street NE","","","","Washington","","DC","20018","","",""
"1347874758673977","","","6216 Quander Road","","","","Alexandria","","VA","22307","","",""
"1347874758673978","","","1401 Pickett Street","","","","Alexandria","","VA","22304","","",""
"1347874758673979","","","2720 North Rosser Street","","","","Alexandria","","VA","22311","","",""
"1347874758673980","","","7916 Holland Road","","","","Alexandria","","VA","22311","","",""
"1347874758673981","","","5201 Redwing Drive","","","","Alexandria","","VA","22312","","",""
"1347874758673982","","","3510 Pence Court","","","","Annandale","","VA","22003","","",""
"1347874758673983","","","7712 Newcastle Drive","","","","Annandale","","VA","22003","","",""
"1347874758673984","","","6815 Crossman Street","","","","Annandale","","VA","22003","","",""
"1347874758673985","","","4504 Wakefield Chapel Road","","","","Annandale","","VA","22003","","",""
"1347874758673986","","","7304 Austin Street","","","","Annandale","","VA","22003","","",""
"1347874758673987","","","4800 Ravensworth Road","","","","Annandale","","VA","22003","","",""
"1347874758673988","","","1114 North Stuart Street","","","","Arlington","","VA","22201","","",""
"1347874758673989","","","2320 South Monroe Street","","","","Arlington","","VA","22206","","",""
"1347874758673990","","","1714 North Glebe Road","","","","Arlington","","VA","22207","","",""
"1347874758673991","","","5945 Arlington Boulevard","","","","Arlington","","VA","22203","","",""
"1347874758673992","","","904 South Glebe Road","","","","Arlington","","VA","22204","","",""
"1347874758673993","","","1118 North Stuart Street","","","","Arlington","","VA","22201","","",""
"1347874758673994","","","1912 South Lorton Street","","","","Arlington","","VA","22204","","",""
"1347874758673995","","","5300 Portsmouth Road","","","","Fairfax","","VA","22032","","",""
"1347874758673996","","","2900 Beau Lane","","","","Fairfax","","VA","22031","","",""
"1347874758673997","","","3010 Steve Martin Drive","","","","Fairfax","","VA","22031","","",""
"1347874758673998","","","3940 Fairview Drive","","","","Fairfax","","VA","22031","","",""
"1347874758673999","","","3317 Prosperity Avenue","","","","Fairfax","","VA","22031","","",""
"1347874758674000","","","8717 Leroy Place","","","","Fairfax","","VA","22031","","",""
"1347874758674001","","","9150 Hermosa Drive","","","","Fairfax","","VA","22031","","",""
"1347874758674002","","","3611 Hill Street","","","","Fairfax","","VA","22030","","",""
"1347874758674003","","","2916 Cedar Lane","","","","Fairfax","","VA","22031","","",""
"1347874758674004","","","3816 Sleepy Hollow Road","","","","Falls Church","","VA","22041","","",""
"1347874758674005","","","5840 Glen Forest Drive","","","","Falls Church","","VA","22041","","",""
"1347874758674006","","","7017 Oak Ridge Road","","","","Falls Church","","VA","22042","","",""
"1347874758674007","","","2809 Mary Street","","","","Falls Church","","VA","(703) 573-1704","","",""
"1347874758674008","","","3302 Glen Carlyn Road","","","","Falls Church","","VA","22041","","",""
"1347874758674009","","","6706 Scipio Lane","","","","Falls Church","","VA","22042","","",""
"1347874758674010","","","3810 Pinewood Terrace","","","","Falls Church","","VA","22041","","",""
"1347874758674011","","","6021 Fairview Place","","","","Falls Church","","VA","22041","","",""
"1347874758674012","","","304 Daniels Street NW","","","","Leesburg","","VA","24502","","",""
"1347874758674013","","","8250 Thomas Drive","","","","Manassas","","VA","20110","","",""
"1347874758674014","","","8522 Thomas Drive","","","","Manassas","","VA","20110","","",""
"1347874758674015","","","9504 Lincoln Avenue","","","","Manassas","","VA","20110","","",""
"1347874758674016","","","8508 Rolling Road","","","","Manassas","","VA","20110","","",""
"1347874758674017","","","9208 Peabody Street","","","","Manassas","","VA","20110","","",""
"1347874758674018","","","9533 School Street","","","","Manassas","","VA","20110","","",""
"1347874758674019","","","8901 Weir Street","","","","Manassas","","VA","20110","","",""
"1347874758674020","","","510 Cardinal Glen Circle","","","","Sterling","","VA","20164","","",""
"1347874758674021","","","900 North Upton Street","","","","Sterling","","VA","20164","","",""
"1347874758674022","","","107 Juneberry Court","","","","Sterling","","VA","20164","","",""
"1347874758674023","","","104 Seneca Chase Court","","","","Sterling","","VA","20164","","",""
"1347874758674024","","","27 Jefferson Drive","","","","Sterling","","VA","20165","","",""
"1347874758674025","","","4611 Sheriff Road NE","","","","Washington","","DC","20019","","",""
"1347874758674026","","","4601 Sheriff Road NE","","","","Washington","","DC","20019","","",""
"1347874758674027","","","641 S Street NW, 2nd Fl","","","","Washington","","DC","20001","","",""
"1347874758674028","","","2101 MLK Jr Avenue SE, 5th Fl","","","","Washington","","DC","20020","","",""
"1347874758674029","","","2175 Champlain Street NW","","","","Washington","","DC","20009","","",""
"1347874758674030","","","641 S St NW, 2nd Floor","","","","Washington","","DC","20001","","",""
"1347874758674031","","","2101 MLK Jr Avenue SE","","","","Washington","","DC","20020","","",""
"1347874758674032","","","2175 Champlain St reet NW","","","","Washington","","DC","20009","","",""
"1347874758674033","","","3912 Georgia Avenue NW","","","","Washington","","DC","20011","","",""
"1347874758674034","","","1060 Brentwood Road NE","","","","Washington","","DC","20018","","",""
"1347874758674035","","","2333 Ontario Road NW","","","","Washington","","DC","20009","","",""
"1347874758674036","","","5601 East Capitol Street SE","","","","Washington","","DC","20019","","",""
"1347874758674037","","","53 MacDill Boulevard (Building 53)","","","","Washington","","DC","","","",""
"1347874758674038","","","4200 Connecticut Avenue NW","","","","Washington","","DC","20008","","",""
"1347874758674039","","","655 New York Avenue NW","","","","Washington","","DC","20001","","",""
"1347874758674040","","","901 3rd Street NW","","","","Washington","","DC","20001","","",""
"1347874758674041","","","471 G Place NW","","","","Washington","","DC","20001","","",""
"1347874758674042","","","50 Irving Street NW","","","","Washington","","DC","20422","","",""
"1347874758674043","","","1500 Franklin Street NE","","","","Washington","","DC","20018","","",""
"1347874758674044","","","820 Chesapeake Street SE","","","","Washington","","DC","20032","","",""
"1347874758674045","","","1722 I Street NW","","","","Washington","","DC","20006","","",""
"1347874758674046","","","2121 Eye Street NW","","","","Washington","","DC","20052","","",""
"1347874758674047","","","1296 Upshur Street NW","","","","Washington","","DC","20011","","",""
"1347874758674048","","","2900 Linden Lane","","","","Silver Spring","","MD","20910","","",""
"1347874758674049","","","6940 South Kings Highway","","","","Alexandria","","VA","22310","","",""
"1347874758674050","","","15701 Crabbs Branch Way","","","","Rockville","","MD","20855","","",""
"1347874758674051","","","1023 15th Street NW","","","","Washington","","DC","22005","","",""
"1347874758674052","","","5 Thomas Circle NW","","","","Washington","","DC","20005","","",""
"1347874758674053","","","P.O. Box 149","","","","Hyattsville","","MD","20781","","",""
"1347874758674054","","","5010 Regency Place","","","","","","MD","20695","","",""
"1347874758674055","","","9475 Lottsford Road","","","","Largo","","MD","20774","","",""
"1347874758674056","","","201 North Burhans Boulevard","","","","","","MD","21740","","",""
"1347874758674057","","","44180 Riverside Parkway","","","","","","VA","20176","","",""
"1347874758674058","","","5925 Lewisberry Road, Dover, PA","","","","","","","17315","","",""
"1347874758674059","","","806 Littlestown Pike","","","","","","MD","21157","","",""
"1347874758674060","","","621 Rhode Island Avenue NW","","","","Washington","","DC","20001","","",""
"1347874758674061","","","410 7th Street SE","","","","Washington","","DC","20003","","",""
"1347874758674062","","","1830 Connecticut Avenue NW","","","","Washington","","DC","20009","","",""
"1347874758674063","","","1313 New York Avenue NW","","","","Washington","","DC","20005","","",""
"1347874758674064","","","4929 Ames Street NE","","","","Washington","","DC","20019","","",""
"1347874758674065","","","901 D Street SW","","","","Washington","","DC","20024","","",""
"1347874758674066","","","4235 4th Street SE","","","","Washington","","DC","20032","","",""
"1347874758674067","","","4948 Elmo Avenue","","","","Washington","","DC","20814","","",""
"1347874758674068","","","1525 Newton Street NW","","","","Washington","","DC","20010","","",""
"1347874758674069","","","4400 Massachusetts Ave","","","","Washington","","DC","20016","","",""
"1347874758674070","","","3531 Georgia Ave NW","","","","Washington","","DC","20010","","",""
"1347874758674071","","","1355 E Street SE","","","","Washington","","DC","20003","","",""
"1347874758674072","","","3500 Martin Luther King Jr Ave SE","","","","Washington","","DC","20032","","",""
"1347874758674073","","","113 Brookley Ave SW","","","","Washington","","DC","20032","","",""
"1347874758674074","","","200-210 55th Street NE","","","","","","DC","20019","","",""
"1347874758674075","","","2000 14th Street NW, Suite 105","","","","Washington","","DC","20009","","",""
"1347874758674076","","","4020 Minnesota Avenue NE","","","","Washington","","DC","20019","","",""
"1347874758674077","","","715 Randolph St NW","","","","Washington","","DC","20011","","",""
"1347874758674078","","","2430 K Street","","","","Washington","","DC","20037","","",""
"1347874758674079","","","1234 Massachusetts Ave NW, Suite C-1002","","","","Washington","","DC","20005","","",""
"1347874758674080","","","1313 New York Avenue, NW, BSMT Suite 1","","","","Washington","","DC","20005","","",""
"1347874758674081","","","850 Delaware Avenue, SW, Suite B","","","","Washington","","DC","20024","","",""
"1347874758674082","","","500 K St NE","","","","Washington","","DC","20002","","",""
"1347874758674083","","","2850 Quebec St. NW","","","","Washington","","DC","20008","","",""
"1347874758674084","","","814 Alabama Avenue, SE","","","","Washington","","DC","20032","","",""
"1347874758674085","","","1222 T St NW","","","","Washington","","DC","20009","","",""
"1347874758674086","","","1200 18th Street NW","","","","Washington","","DC","20036","","",""
"1347874758674087","","","1636 Bladensburg Rd. NE","","","","Washington","","DC","20002","","",""
"1347874758674088","","","4817 Blagden Avenue, N.W","","","","Washington","","DC","20011","","",""
"1347874758674089","","","3001 Alabama Ave SE","","","","Washington","","DC","20020","","",""
"1347874758674090","","","100 South Charles St. Tower 2, 8th Floor","","","","Baltimore","","MD","21223","","",""
"1347874758674091","","","1440 Meridian Pl NW","","","","Washington","","DC","20010","","",""
"1347874758674092","","","3030 12th St NE","","","","Washington","","DC","20017","","",""
"1347874758674093","","","801 Roeder Road, Suite 425","","","","Silver Spring","","MD","20910","","",""
"1347874758674094","","","3215 Martin Luther King Jr. Ave SE","","","","Washington","","DC","20032","","",""
"1347874758674095","","","1275 First Street, NE, 8th Floor","","","","Washington","","DC","20002","","",""
"1347874758674096","","","3030 12th Street, NE","","","","Washington","","DC","20017","","",""
"1347874758674097","","","421 King Street, STE. 400","","","","Alexandria","","VA","22314","","",""
"1347874758674098","","","1801 E St SE","","","","Washington","","DC","20003","","",""
"1347874758674099","","","899 North Capitol Street, NE,","","","","Washington","","DC","20002","","",""
"1347874758674100","","","2200 South Dakota Avenue, NE","","","","Washington","","DC","20018","","",""
"1347874758674101","","","500 Indiana Avenue, NW Rm #4415","","","","Washington","","DC","20001","","",""
"1347874758674102","","","1400 L St NW","","","","Washington","","DC","20005","","",""
"1347874758674103","","","2960 Sleepy Hollow Rd","","","","Falls Church","","VA","22044","","",""
"1347874758674104","","","503 Rock Creek Church Road, NW","","","","Washington","","DC","20010","","",""
"1347874758674105","","","1316 Euclid Street NW","","","","Washington","","DC","20009","","",""
"1347874758674106","","","1229 NY Avenue","","","","Washington","","DC","20005","","",""
"1347874758674107","","","2020 A 14th St","","","","Arlington","","VA","22201","","",""
"1347874758674108","","","2020-A 14th St North","","","","Arlington","","VA","22201","","",""
"1347874758674109","","","2301 Argonne Dr","","","","Baltimore","","MD","21218","","",""
"1347874758674110","","","2301 Argonne Drive","","","","Baltimore","","MD","21218","","",""
"1347874758674111","","","1890 North Market Street","","","","Frederick","","MD","21701","","",""
"1347874758674112","","","138 Baltimore Street, Suite 201","","","","Cumberland","","MD","21502-2590","","",""
"1347874758674113","","","20010 Century Boulevard, Suite 400","","","","Germantown","","MD","20874","","",""
"1347874758674114","","","16 W. Washington Street","","","","Hagerstown","","MD","21740-5583","","",""
"1347874758674115","","","1004 Littlestown Pike, Suite B1","","","","Westminster","","MD","21157-3039","","",""
"1347874758674116","","","49 Old Solomons Island Road #202","","","","","","MD","21401","","",""
"1347874758674117","","","8737 Brooks Drive, Suite 106","","","","Easton","","MD","21601","","",""
"1347874758674118","","","613 Global Way","","","","Linthicum Heights","","MD","21090","","",""
"1347874758674119","","","200 Duke Street, Suite 1000","","","","Prince Frederick","","MD","20678-9303","","",""
"1347874758674120","","","116 W. Main St, Suite 403","","","","","","MD","21801","","",""
"1347874758674121","","","23110 Leonard Hall Drive","","","","Leonardtown","","MD","20650-0653","","",""
"1347874758674122","","","2670 Crain Highway, Suite 208","","","","Waldorf","","MD","20601-2806","","",""
"1347874758674123","","","1010 Park Avenue, Suite 102","","","","Baltimore","","MD","21201","","",""
"1347874758674124","","","10461 Mill Run Circle, Suite LL1","","","","Owings Mills","","MD","21117","","",""
"1347874758674125","","","2 South Bond Street, Suite 102","","","","","","MD","21014-3736","","",""
"1347874758674126","","","7161 Columbia Gateway Dr, Suite D","","","","Columbia","","MD","21046","","",""
"1347874758674127","","","103 Chesapeake Boulevard, Suite B","","","","Elkton","","MD","21921-5945","","",""
"1347874758674128","","","300 E. Joppa Road, Suite 408","","","","Towson","","MD","21286-5352","","",""
"1347874758674129","","","4451-Z Parliament Place","","","","Lanham","","MD","20706-1843","","",""
"1347874758674130","","","5001 Silver Hill Road #306","","","","Suitland","","MD","20746","","",""
"1347874758674131","","","11002 Veirs Mill Road #605","","","","Wheaton","","MD","20902-1991","","",""
"1347874758674132","","","9 Old Solomons Island Road #202","","","","Annapolis","","MD","21401","","",""
"1347874758674133","","","116 W. Main Street, Suite 403","","","","Salisbury","","MD","21801","","",""
"1347874758674134","","","2525 Riva Road, Suite 101","","","","","","MD","21401","","",""
"1347874758674135","","","11002 Veirs Mill Road, Suite 605","","","","Wheaton","","","20902","","",""
"1347874758674136","","","Maryland Disability Determination Services PO Box 1810","","","","","","MD","21030-1810","","",""
"1347874758674137","","","1010 Park Avenue, Suite 110","","","","Baltimore","","MD","21201","","",""
"1347874758674138","","","4321 ORD St. NE","","","","Washington","","DC","20019","","",""
"1347874758674139","","","3440 Minnesota Ave. SE","","","","Washington","","DC","20019","","",""
"1347874758674140","","","3744 1/2 Hayes St, NE","","","","Washington","","DC","20019","","",""
"1347874758674141","","","3500 Martin Luther King Jr Ave, SE","","","","Washington","","DC","20032","","",""
"1347874758674142","","","3700 9th St SE","","","","Washington","","DC","20032","","",""
"1347874758674143","","","2700 Jasper St SE","","","","Washington","","DC","20032","","",""
"1347874758674144","","","1667 Good Hope Rd, SE","","","","Washington","","DC","20020","","",""
"1347874758674145","","","3303 Stanton Rd. S.E.","","","","Washington","","DC","20020","","",""
"1347874758674146","","","814 Alabama Avenue, SE Washington","","","","Washington","","DC","20032","","",""
"1347874758674147","","","1355 E St. SE","","","","Washington","","DC","20003","","",""
"1347874758674148","","","2000 14th Street NW suite 105","","","","Washington","","DC","20009","","",""
"1347874758674149","","","2020 A 14th St North","","","","Arlington","","VA","22201","","",""
"1347874758674150","","","1234 Massachusetts Ave NW Suite C-1002","","","","Washington","","DC","","","",""
"1347874758674151","","","4817 Blagden Avenue","","","","Washington","","DC","20011","","",""
"1347874758674152","","","203 N. St. Southeast","","","","Washington","","DC","20024","","",""
"1347874758674153","","","2000 Alabama Ave. Southeast","","","","Washington","","DC","20020","","",""
"1347874758674154","","","203 N. St. Southwest","","","","Washington","","DC","20024","","",""
"1347874758674155","","","3100 Martin Luther King Jr Ave. SE","","","","Washington","","DC","20032","","",""
"1347874758674156","","","5171 S Dakota Ave NE","","","","Washington","","DC","20017","","",""
"1347874758674157","","","2112 F St NW","","","","Washington","","DC","20037","","",""
"1347874758674158","","","4228 Wisconsin Ave","","","","Washington","","DC","20016","","",""
"1347874758674159","","","4425 Nannie Helen Burroughs Avenue, NE","","","","Washington","","DC","20019","","",""
"1347874758674160","","","1050 First St. NE, Fifth Floor","","","","Washington","","DC","20002","","",""
"1347874758674161","","","1050 First Street NE","","","","Washington","","DC","20002","","",""
"1347874758674162","","","441 Fourth St. NW, Suite 370 North","","","","Washington","","DC","20001","","",""
"1347874758674163","","","2000 G Street NW","","","","Washington","","DC","20052","","",""
"1347874758674164","","","600 NEW JERSEY AVENUE NW","","","","Washington","","DC","20001","","",""
"1347874758674165","","","600 New Jersey Avenue NW Suite 312","","","","Washington","","DC","20001","","",""
"1347874758674166","","","600 New Jersey Avenue NW Suite 306","","","","Washington","","DC","20001","","",""
"1347874758674167","","","600 New Jersey Avenue NW Suite 332","","","","Washington","","DC","20001","","",""
"1347874758674168","","","600 New Jersey Ave, NW Suite 352","","","","Washington","","DC","20001","","",""
"1347874758674169","","","111 F Street NW Suite 123","","","","Washington","","DC","20001","","",""
"1347874758674170","","","600 New Jersey Ave, NW MCD 312","","","","Washington","","DC","20001","","",""
"1347874758674171","","","600 New Jersey Avenue NW Suite 130","","","","Washington","","DC","20001","","",""
"1347874758674172","","","111 F Street, NW Suite 334","","","","Washington","","DC","20001","","",""
"1347874758674173","","","600 New Jersey Avenue NW McDonough Hall, Suite 336","","","","Washington","","DC","20001","","",""
"1347874758674174","","","600 New Jersey Avenue NW Suite 340","","","","Washington","","DC","20001","","",""
"1347874758674175","","","600 New Jersey Avenue NW Suite 334","","","","Washington","","DC","20001","","",""
"1347874758674176","","","600 New Jersey Ave N.W. Suite 127","","","","Washington","","DC","20001","","",""
"1347874758674177","","","600 New Jersey Ave., NW - Ste. 120","","","","Washington","","DC","20001","","",""
"1347874758674178","","","600 New Jersey Avenue NW McDonough Hall 305","","","","Washington","","DC","20001","","",""
"1347874758674179","","","901 4th Street NW Suite 6000","","","","Washington","","DC","20001","","",""
"1347874758674180","","","600 New Jersey Ave., NW","","","","Washington","","DC","20001","","",""
"1347874758674181","","","600 New Jersey Avenue, NW Room 128","","","","Washington","","DC","20001","","",""
"1347874758674182","","","1900 Massachusetts Avenue, SE 4th FL,","","","","Washington","","DC","20003","","",""
"1347874758674183","","","1618 Monroe St. NW","","","","Washington","","DC","20010","","",""
"1347874758674184","","","215 G St NE","","","","Washington","","DC","20032","","",""
"1347874758674185","","","1133 15th St NW","","","","Washington","","DC","20009","","",""
"1347874758674186","","","700 14th St NW, Suite 400","","","","Washington","","DC","20005","","",""
"1347874758674187","","","241 42nd Street, NE","","","","Washington","","DC","20019","","",""
"1347874758674188","","","209 W. Fayette St.","","","","Baltimore","","MD","21201","","",""
"1347874758674189","","","1500 Franklin St NE","","","","Washington","","DC","20018","","",""
"1347874758674190","","","71 Oglethorpe St. NW","","","","Washington","","DC","20011","","",""
"1347874758674191","","","450 H Street, NW","","","","Washington","","DC","20001","","",""
"1347874758674192","","","1000 Mount Olivet Road NE","","","","Washington","","DC","20002","","",""
"1347874758674193","","","2101 Martin Luther King, Jr. Avenue SE","","","","Washington","","DC","20020","","",""
"1347874758674194","","","8400 River Road","","","","Laurel","","MD","20724","","",""
"1347874758674195","","","152 Wayne PL SE","","","","Washington","","DC","20032","","",""
"1347874758674196","","","3636 GEORGIA AVE NW","","","","Washington","","DC","","","",""
"1347874758674197","","","8240 Professional Pl","","","","Landover","","MD","","","",""
"1347874758674198","","","2041 Martin Luther King Jr Ave SE, Ste M2","","","","Washington","","DC","","","",""
"1347874758674199","","","441 4th St NW, Ste 721N","","","","Washington","","DC","20001","","",""
"1347874758674200","","","1 DC Village Ln SW","","","","Washington","","DC","20032","","",""
"1347874758674201","","","245 West Main St","","","","","","VA","24354","","",""
"1347874758674202","","","2803 Dungannon Rd","","","","","","VA","24230","","",""
"1347874758674203","","","1073 Father Judge Rd","","","","","","VA","24574","","",""
"1347874758674204","","","3300 Fort Meade Rd","","","","Laurel","","MD","20724","","",""
"1347874758674205","","","10900 Old Court Rd","","","","","","","21163","","",""
"1347874758674206","","","8106 Georgia Ave","","","","Silver Spring","","MD","20910","","",""
"1347874758674207","","","3500 Martin Luther King Jr. Ave SE","","","","Washington","","MD","20032","","",""
"1347874758674208","","","3601 Connecticut Ave NW","","","","Washington","","DC","20008","","",""
"1347874758674209","","","2121 Decatur Pl NW","","","","Washington","","DC","20008","","",""
"1347874758674210","","","2430 K St NW","","","","Washington","","DC","20037","","",""
"1347874758674211","","","1801 35th Street NW","","","","Washington","","DC","20007","","",""
"1347874758674212","","","5200 Cathedral Avenue NW","","","","Washington","","DC","20032","","",""
"1347874758674213","","","222 M St SW","","","","Washington","","DC","20024","","",""
"1347874758674214","","","2316 Rhode Island Ave","","","","Washington","","DC","20018","","",""
"1347874758674215","","","2900 14th St NW","","","","Washington","","DC","20009","","",""
"1347874758674216","","","1845 Harvard St NW","","","","Washington","","DC","20009","","",""
"1347874758674217","","","2001 15th St NW","","","","Washington","","DC","20009","","",""
"1347874758674218","","","1842 Calvert St NW","","","","Washington","","DC","20009","","",""
"1347874758674219","","","899 O Street NW","","","","Washington","","DC","","","",""
"1347874758674220","","","1221 M St NW","","","","Washington","","DC","20005","","",""
"1347874758674221","","","1615 14th St NW","","","","Washington","","DC","20009","","",""
"1347874758674222","","","1425 N St NW","","","","Washington","","DC","20005","","",""
"1347874758674223","","","808 Bladensburg Rd NE","","","","Washington","","DC","20002","","",""
"1347874758674224","","","725 24th St NW","","","","Washington","","DC","20037","","",""
"1347874758674225","","","1616 Marion St NW","","","","Washington","","DC","20001","","",""
"1347874758674226","","","3001 Wisconsin Ave. NW.","","","","Washington","","DC","","","",""
"1347874758674227","","","2850 Quebec Street NW","","","","Washington","","DC","20008","","",""
"1347874758674228","","","5201 Connecticut Ave NW","","","","Washington","","DC","20015","","",""
"1347874758674229","","","1327 Van Buren St NW","","","","Washington","","DC","20012","","",""
"1347874758674230","","","4817 Blagden Ave NW","","","","Washington","","DC","20011","","",""
"1347874758674231","","","20 Tuckerman Street NE","","","","Washington","","DC","","","",""
"1347874758674232","","","1330 Missouri Ave. NW","","","","Washington","","DC","20011","","",""
"1347874758674233","","","3400 Banneker Dr. NE","","","","Washington","","DC","20018","","",""
"1347874758674234","","","5233 North Capitol St. NE","","","","Washington","","DC","20011","","",""
"1347874758674235","","","635 Edgewood St. NE","","","","Washington","","DC","20017","","",""
"1347874758674236","","","1901 Evarts Street","","","","Washington","","DC","","","",""
"1347874758674237","","","3298 Ft. Lincoln Dr.","","","","Washington","","DC","20018","","",""
"1347874758674238","","","2412 Franklin St. NE","","","","Washington","","DC","20018","","",""
"1347874758674239","","","1140 North Capitol ST. NW","","","","Washington","","DC","20002","","",""
"1347874758674240","","","1200 Delaware Ave SW","","","","Washington","","DC","20024","","",""
"1347874758674241","","","1519 4th St NW","","","","Washington","","DC","20001","","",""
"1347874758674242","","","3400 Minnesota Avenue SE Washington","","","","Washington","","DC","20019","","",""
"1347874758674243","","","4321 Ord Street NE Washington","","","","Washington","","DC","20019","","",""
"1347874758674244","","","3001 Alabama Avenue SE","","","","Washington","","DC","20020","","",""
"1347874758674245","","","2700 Jasper Street","","","","Washington","","DC","","","",""
"1347874758674246","","","3303A Stanton Ave. SE","","","","","","","","","",""
"1347874758674247","","","4301 9th Street SE","","","","Washington","","DC","","","",""
"1347874758674248","","","1275 First Street 8th floor","","","","Washington","","DC","20002","","",""
"1347874758674249","","","STRATUM at Venus Grounds,","","","","Adelphi","","DC","10010","","",""
"1347874758674250","","","STRATUM at Venus Grounds","","","","Alexandria","","DC","380015","","",""
"1347874758674251","","","faredi","","","","Alexandria","","","383345","","",""
