id,location_id,attention,address_1,address_2,address_3,address_4,city,region,state_province,postal_code,country
601829608206464,645897759928377,,"700 Princess Street",,,,Alexandria,,VA,22314,US
602013012418112,1198692764026642,,"9401 Old Georgetown Road",,,,Bethesda,,MD,20814,US
606691178479516,1021458214239224,,"5255 Loughboro Rd NW",,,,Washington,,DC,20016,US
654987694705915,1288243545225450,,"4430 Benning Road NE",,,,Washington,,DC,20019,US
623483554226574,577218861870418,,"12196 Sunset Hills Road",,,,Reston,,VA,20190,US
736104421703506,991654914903385,,"1325 W Street, NW",,,,Washington,,DC,20009,US
758769305327957,910674112866949,,"5650 Oakmont Avenue",,,,Bethesda,,MD,20817,US
791236860915802,1089431432526337,,"6600 Laurel Bowie Road",,,,Bowie,,MD,20715,US
750182888138367,991046422392107,,"3912 Georgia Ave NW",,,,Washington,,DC,20011,US
764741814024308,623911698639626,,"2900 Newton St NE",,,,Washington,,DC,20018,US
783162154650070,1061235909513521,,"500 K street NE",,,,Washington,,DC,20002,US
783162154650070,1333682431247166,,"500 K street NE",,,,Washington,,DC,20002,US
801589347975855,779234665793356,,"2422 North Fillmore Street",,,,Arlington,,VA,22201,US
814164678263538,1183173298558849,,"601 E St NW",,,,Washington,,DC,20049,US
843557435036966,1142163554566402,,"71 O St NW",,,,Washington,,DC,20001,US
900274267215840,906614178779692,,"624 West Church Road",,,,Sterling,,VA,20164,US
920336761856377,920613426512187,,"1906 Allison Street, NE",,,,Washington,,DC,20018,US
965942365087326,932502301190120,,"1330 Missouri Street NW",,,,Washington,,DC,20011,US
980902256958058,1249696647199145,,"1525 Newton St NW",,,,Washington,,DC,20010,US
948986432487608,869647738071923,,"1842 Calvert Street NW",,,,Washington,,DC,20009,US
967215957608908,950611509071482,,"26B Fairfax Street SE",,,,Leesburg,,VA,20175,US
1000047601685886,996758537763515,,"3917 Minnesota Ave NE",,,,Washington,,DC,20019,US
993962351296479,725060877971150,,"1112 16th St NW #240",,,,Washington,,DC,20036,US
1111486004109298,834036632030985,,"3400 North 13th Street",,,,Arlington,,VA,22201,US
1105631318690559,867480542956619,,"60 O St NW",,,,Washington,,DC,20001,US
1098356156192294,1333682431246975,,"1234 Massachusetts Ave NW",,,,Washington,,DC,,US
1067038842463788,1092756194618999,,"9601 Colesville Road",,,,"Silver Spring",,MD,20901,US
1152665399777698,637684733149897,,"2501 18th St NE",,,,Washington,,DC,20018,US
1215798438097456,1281917418518969,,"6031 Kansas Avenue NW",,,,Washington,,DC,20011,US
1217002783652146,967601719856630,,"8505 Springvale Rd.",,,,"Silver Spring",,MD,20910,US
1171342361002389,940212538195830,,"9800 Hastings Drive",,,,"Silver Spring",,MD,20901,US
1216780850778368,651934751090741,,"1667 Good Hope Road SE",,,,Washington,,DC,20020,US
1243421228505168,1080745784913482,,"4003 Camp Letts Road",,,,Edgewater,,MD,21037,US
1300669729846678,1199753303956769,,"451 7th Street SW",,,,Washington,,DC,20410,US
1310277015717903,716573413368445,,"420 East Monroe Avenue",,,,Alexandria,,VA,22301,US
1268199460403994,1272787330877007,,"2118 Ridgecrest Court, SE",,,,Washington,,DC,20020,US
1298660539385549,1092715705970916,,"4125 Albemarle St NW",,,,Washington,,DC,20016,US
1347874758673671,1333682431246530,,"near pvr cinema,chandkheda",,,,Germantown,,VA,380015,US
1347874758673672,1333682431246779,,,,,,,,,,US
1347874758673672,1333682431246977,,,,,,,,,,US
1347874758673672,1175190163226960,,,,,,,,,,US
1347874758673672,1333682431246538,,,,,,,,,,US
1347874758673678,1333682431246531,,"near pvr cinema,chandkheda_edit",,,,"Silver Spring",,VA,380015,US
1347874758673682,1333682431246536,,"8908 Riggs Rd",,,,Adelphi,,MD,20783,
1347874758673683,1333682431246537,,"344 University Blvd. West",,,,"Silver Spring",,MD,20901,
1347874758673683,1333682431246539,,"344 University Blvd. West",,,,"Silver Spring",,MD,20901,
1347874758673685,1333682431246540,,"8908 Riggs Road",,,,"Silver Spring",,MD,20783,
1347874758673708,555733908618539,,"75 Hanover Place  NW",,,,Washington,,DC,20001,
1347874758673711,882293888224112,,"3400 North 13th St",,,,Arlington,,VA,22201,
1347874758673904,1185094328556228,,"4201 Butterworth Place, N.W.",,,,Washington,,DC,20016,
1347874758674033,953875575104132,,"3912 Georgia Avenue NW",,,,Washington,,DC,20011,
1347874758674034,1202618027693441,,"1060 Brentwood Road NE",,,,Washington,,DC,20018,
1347874758674035,1146850101014457,,"2333 Ontario Road NW",,,,Washington,,DC,20009,
1347874758674038,1333682431246925,,"4200 Connecticut Avenue NW",,,,Washington,,DC,20008,
1347874758674069,1333682431246958,,"4400 Massachusetts Ave",,,,Washington,,DC,20016,
1347874758674071,1333682431247133,,"1355 E Street SE",,,,Washington,,DC,20003,
1347874758674076,1333682431246972,,"4020 Minnesota Avenue NE",,,,Washington,,DC,20019,
1347874758674077,1333682431246973,,"715 Randolph St NW",,,,Washington,,DC,20011,
1347874758674077,1333682431247155,,"715 Randolph St NW",,,,Washington,,DC,20011,
1347874758674078,1333682431246974,,"2430 K Street",,,,Washington,,DC,20037,
1347874758674079,818197734902999,,"1234 Massachusetts Ave NW, Suite C-1002",,,,Washington,,DC,20005,
1347874758674083,1333682431246978,,"2850 Quebec St. NW",,,,Washington,,DC,20008,
1347874758674084,1333682431246979,,"814 Alabama Avenue, SE",,,,Washington,,DC,20032,
1347874758674085,1333682431246980,,"1222 T St NW",,,,Washington,,DC,20009,
1347874758674086,1333682431246981,,"1200 18th Street NW",,,,Washington,,DC,20036,
1347874758674087,1333682431246982,,"1636 Bladensburg Rd. NE",,,,Washington,,DC,20002,
1347874758674147,1333682431246960,,"1355 E St. SE",,,,Washington,,DC,20003,
1347874758674148,1333682431246971,,"2000 14th Street NW suite 105",,,,Washington,,DC,20009,
1347874758674151,1333682431246983,,"4817 Blagden Avenue",,,,Washington,,DC,20011,
1347874758674207,1333682431246961,,"3500 Martin Luther King Jr. Ave SE",,,,Washington,,MD,20032,
1347874758674208,1333682431247134,,"3601 Connecticut Ave NW",,,,Washington,,DC,20008,
1347874758674209,1333682431247135,,"2121 Decatur Pl NW",,,,Washington,,DC,20008,
1347874758674210,1333682431247136,,"2430 K St NW",,,,Washington,,DC,20037,
1347874758674211,1333682431247137,,"1801 35thÂ Street NW",,,,Washington,,DC,20007,
1347874758674212,1333682431247138,,"5200 Cathedral Avenue NW",,,,Washington,,DC,20032,
1347874758674213,1333682431247139,,"222 M St SW",,,,Washington,,DC,20024,
1347874758674214,1333682431247140,,"2316 Rhode Island Ave",,,,Washington,,DC,20018,
1347874758674215,1333682431247141,,"2900 14th St NW",,,,Washington,,DC,20009,
1347874758674216,1333682431247142,,"1845 Harvard St NW",,,,Washington,,DC,20009,
1347874758674217,1333682431247143,,"2001 15th St NW",,,,Washington,,DC,20009,
1347874758674218,1333682431247144,,"1842 Calvert St NW",,,,Washington,,DC,20009,
1347874758674219,1333682431247145,,"899 O Street NW",,,,Washington,,DC,,
1347874758674220,1333682431247146,,"1221 M St NW",,,,Washington,,DC,20005,
1347874758674221,1333682431247147,,"1615 14th St NW",,,,Washington,,DC,20009,
1347874758674222,1333682431247148,,"1425 N St NW",,,,Washington,,DC,20005,
1347874758674223,1333682431247149,,"808 Bladensburg Rd NE",,,,Washington,,DC,20002,
1347874758674224,1333682431247150,,"725 24th St NW",,,,Washington,,DC,20037,
1347874758674225,1333682431247151,,"1616 Marion St NW",,,,Washington,,DC,20001,
1347874758674226,1333682431247152,,"3001 Wisconsin Ave. NW.",,,,Washington,,DC,,
1347874758674227,1333682431247153,,"2850 Quebec Street NW",,,,Washington,,DC,20008,
1347874758674228,1333682431247154,,"5201 Connecticut Ave NW",,,,Washington,,DC,20015,
1347874758674229,1333682431247156,,"1327 Van Buren St NW",,,,Washington,,DC,20012,
1347874758674230,1333682431247157,,"4817 Blagden Ave NW",,,,Washington,,DC,20011,
1347874758674231,1333682431247158,,"20 Tuckerman Street NE",,,,Washington,,DC,,
1347874758674232,1333682431247159,,"1330 Missouri Ave. NW",,,,Washington,,DC,20011,
1347874758674233,1333682431247160,,"3400 Banneker Dr. NE",,,,Washington,,DC,20018,
1347874758674234,1333682431247161,,"5233 North Capitol St. NE",,,,Washington,,DC,20011,
1347874758674235,1333682431247162,,"635 Edgewood St. NE",,,,Washington,,DC,20017,
1347874758674236,1320932553563772,,"1901 Evarts Street",,,,Washington,,DC,,
1347874758674237,1333682431247163,,"3298 Ft. Lincoln Dr.",,,,Washington,,DC,20018,
1347874758674238,1333682431247164,,"2412 Franklin St. NE",,,,Washington,,DC,20018,
1347874758674239,1333682431247165,,"1140 North Capitol ST. NW",,,,Washington,,DC,20002,
1347874758674240,1333682431247167,,"1200 Delaware Ave SW",,,,Washington,,DC,20024,
1347874758674241,1333682431247168,,"1519 4th St NW",,,,Washington,,DC,20001,
1347874758674242,1333682431247169,,"3400 Minnesota Avenue SE Washington",,,,Washington,,DC,20019,
1347874758674243,1333682431247170,,"4321 Ord Street NE Washington",,,,Washington,,DC,20019,
1347874758674244,1333682431246984,,"3001 Alabama Avenue SE",,,,Washington,,DC,20020,
1347874758674245,1333682431247171,,"2700 Jasper Street",,,,Washington,,DC,,
1347874758674246,1333682431247172,,"3303A Stanton Ave. SE",,,,,,,,
1347874758674247,1333682431247173,,"4301 9th Street SE",,,,Washington,,DC,,
1347874758674248,1333682431247174,,"1275 First Street 8th floor",,,,Washington,,DC,20002,
