id,location_id,attention,address_1,address_2,address_3,address_4,city,region,state_province,postal_code,country
1,1095290768316947,,"4065 Minnesota Ave NE",,,,Washington,,DC,20019,US
2,891549215171790,,"602 N St NW",,,,Washington,,DC,20001,US
3,1134996153077734,,"9159 Brookville Road",,,,"Silver Spring",,MD,20910,US
4,1089626392255953,,"600 W Street, NE",,,,Washington,,DC,20002,US
5,557042258022055,,"899 North Capitol St NE",,,,Washington,,DC,20002,US
6,843887752849047,,"8720 Georgia Avenue, Suite 705",,,,"Silver Spring",,MD,20910,US
7,1013981933889035,,"2307 Martin Luther King Jr Ave SE",,,,Washington,,DC,20020,US
8,1303501603402692,,"1126 16th St NW",,,,Washington,,DC,20036,US
9,1120053867178665,,"651 Pennsylvania Ave SE",,,,Washington,,DC,20003,US
10,957520333540238,,"3240 Stanton Road SE",,,,Washington,,DC,20020,US
11,1132814241177816,,"2000 14th St NW",,,,Washington,,DC,20009,US
11,1241825498211259,,"2000 14th St NW",,,,Washington,,DC,20009,US
12,612821914479266,,"20021 Aircraft Drive",,,,Germantown,,MD,20874,US
13,816235551756131,,"2041 Martin Luther King Ave SE",,,,Washington,,DC,20020,US
14,1331394191570751,,"4100 Mohawk Lane",,,,Alexandria,,VA,22309,US
15,901594639817796,,"3912 Georgia Avenue",,,,Washington,,DC,20011,US
16,984130963161577,,"3985 Mass Ave SE",,,,Washington,,DC,20019,US
17,645897759928377,,"700 Princess Street",,,,Alexandria,,VA,22314,US
18,557094579799532,,"2101 14th Street SE",,,,Washington,,DC,20003,US
19,636884985267395,,"6825 Georgia Avenue NW",,,,Washington,,DC,20012,US
20,727772454332930,,"1825 K St NW",,,,Washington,,DC,20006,US
21,891065803273009,,"1111 14th NW Suite 620",,,,Washington,,DC,20005,US
22,1115108116176359,,"50 49th Street NE",,,,Washington,,DC,20019,US
23,580105202701779,,"7603 Georgia Ave NW",,,,Washington,,DC,20012,US
24,1293267778021809,,"4900 Puerto Rico Avenue NE",,,,Washington,,DC,20017,US
25,1091227224514735,,"4326 14th Street, NW",,,,Washington,,DC,20011,US
26,1178988249328078,,"12320 Parklawn Drive",,,,Rockville,,MD,20852,US
26,918553319355477,,"12320 Parklawn Drive",,,,Rockville,,MD,20852,US
27,1243562110622958,,"2112 Varnum Street, NE",,,,Washington,,DC,20018,US
28,855494369304069,,"3924 4th Street SE",,,,Washington,,DC,20032,US
29,902244835227859,,"1217 Good Hope Road SE",,,,Washington,,DC,20020,US
30,799734694979867,,"1421 37th St NW",,,,Washington,,DC,20057,US
31,1261462848590883,,"4930 Connecticut Avenue NW",,,,Washington,,DC,20008,US
32,613607303207687,,"2001 14th St SE",,,,Washington,,DC,20020,US
33,1209862604521984,,"1342 Florida Avenue NE",,,,Washington,,DC,20002,US
34,1200713312530612,,"5401 South Dakota Avenue NE",,,,Washington,,DC,20011,US
35,938559947702992,,"1200 G Street, NW",,,,Washington,,DC,20005,US
36,571421925629438,,"429 O Street, NW",,,,Washington,,DC,20001,US
37,1048770784971224,,"400 I St SW",,,,Washington,,DC,20024,US
38,1134258246707073,,"2601 18th St NE",,,,Washington,,DC,20018,US
39,849821356417378,,"101 Atlantic Street SE",,,,Washington,,DC,20032,US
40,1094057138771894,,"330 7th Street NE",,,,Washington,,DC,20002,US
41,1198692764026642,,"9401 Old Georgetown Road",,,,Bethesda,,MD,20814,US
42,967842377045809,,"2200 Rhode Island Avenue, NE",,,,Washington,,DC,20018,US
43,555733908618539,,"75 Hanover Place NW",,,,Washington,,DC,20001,US
44,1098092408059985,,"155 L Street NW",,,,Washington,,DC,20001,US
45,1247065547409159,,"3166 Mt Pleasant St. NW",,,,Washington,,DC,20010,US
46,1148893965275945,,"1156 15th St NW",,,,Washington,,DC,20005,US
47,1221541137308778,,"926 11th St NW",,,,Washington,,DC,20001,US
48,1118017178735628,,"1990 K Street NW",,,,Washington,,DC,20006,US
49,1021458214239224,,"5255 Loughboro Rd NW",,,,Washington,,DC,20016,US
50,625420662664147,,"1990 K St NW",,,,Washington,,DC,20001,US
51,1091354780708194,,"1320 Mississippi Avenue, SE",,,,Washington,,DC,20032,US
52,1261098666898898,,"260 54th Street NE",,,,Washington,,DC,20019,US
53,1288243545225450,,"4430 Benning Road NE",,,,Washington,,DC,20019,US
54,780622753430249,,"3020 14th Street NW",,,,Washington,,DC,20009,US
55,640477199284806,,"1620 N Capitol St NW",,,,Washington,,DC,20002,US
56,589160218536849,,"500 Indiana Ave NW",,,,Washington,,DC,20001,US
57,610544508126672,,"1717 Columbia Road NW",,,,Washington,,DC,20009,US
58,1245305987898697,,"7511 Fordson Road",,,,Alexandria,,VA,22306,US
59,825613990987555,,"1200 U St NW",,,,Washington,,DC,20009,US
60,819741028296646,,"64 New York Ave NE",,,,Washington,,DC,20002,US
60,1233404465582125,,"64 New York Ave NE",,,,Washington,,DC,20002,US
61,1318371479368083,,"1000 Forest Glen Road",,,,"Silver Springs",,MD,20901,US
62,590471402150942,,"33 University Blvd E",,,,"Silver Spring",,MD,20901,US
63,680369109388099,,"3305 Glen Carlyn Road",,,,"Falls Church",,VA,22041,US
64,648965877017429,,"6925 B Willow Street NW",,,,Washington,,DC,20012,US
65,1060230665027262,,"3029 Martin Luther King, Jr. Ave SE",,,,Washington,,DC,20032,US
66,987580985223381,,"5625 Connecticut Avenue NW",,,,Washington,,DC,20015,US
67,638609559652847,,"10056 Dean Dr.",,,,Manassas,,VA,20110,US
68,832529372572869,,"5335 Wisconsin Ave NW",,,,Washington,,DC,20015,US
69,584945568119538,,"1041 Wisconsin Ave NW",,,,Washington,,DC,20007,US
70,1327146928348308,,"2025 M Street",,,,Washington,,DC,20036,US
71,625247779378848,,"9518 Richmond Hwy",,,,Lorton,,VA,22079,US
72,577218861870418,,"12196 Sunset Hills Road",,,,Reston,,VA,20190,US
73,624908178427639,,"2000 14th Street, NW, 5th Floor",,,,Washington,,DC,20009,US
74,572608168009697,,"1201 New York Ave NW",,,,Washington,,DC,20005,US
75,870176486464739,,"1667 Good Hope Rd SE",,,,Washington,,DC,20020,US
76,681929479292327,,"1509 16th St NW",,,,Washington,,DC,20036,US
77,865540109803591,,"1340 Rhode Island Avenue NE",,,,Washington,,DC,20018,US
78,1094898373646373,,"1131 Spring Road, NW",,,,Washington,,DC,20010,US
78,1117640220112945,,"1131 Spring Road, NW",,,,Washington,,DC,20010,US
79,1229706459709655,,"765 Kenilworth Terrace NE",,,,Washington,,DC,20019,US
80,1288638701381373,,"1516 Hamilton Street NW",,,,Washington,,DC,20011,US
81,980257350381118,,"14995 Shady Grove Road, Suite 200 ",,,,Rockville,,MD,20850,US
82,815051886893035,,"9440 Marlboro Pike",,,,"Upper Marlboro",,MD,20772,US
83,970983517110031,,"1105 50th St., N.E.",,,,Washington,,DC,20019,US
84,1246425051489068,,"2531 Sherman Avenue NW",,,,Washington,,DC,20001,US
85,803666590300951,,"200 Wood Hill Road",,,,Rockville,,MD,20850,US
86,1195204292292590,,"4719 Marlboro Pike",,,,"Capitol Heights",,MD,20743,US
87,611309881787759,,"1434 Harvard St NW",,,,Washington,,DC,20009,US
88,1230040295169640,,"821 Howard Rd SE",,,,Washington,,DC,20020,US
89,1274660264568428,,"6856 Eastern Ave NW, Suite 300",,,,Washington,,DC,20012,US
90,1320932553563772,,"1901 Evarts St. NE",,,,Washington,,DC,20018,US
91,1280629114863869,,"2500 14th St NW",,,,Washington,,DC,20003,US
92,1116757915659329,,"2831 15th St NW",,,,Washington,,DC,20009,US
93,591956672701732,,"1012 14th Street, NW, Suite 700",,,,Washington,,DC,20005,US
94,849014976212155,,"2711 Connecticut Ave NW",,,,Washington,,DC,20008,US
95,636848661261240,,"2375 Elvans Rd. SE",,,,Washington,,DC,20020,US
96,969410719625582,,"115 Atlantic Street SW",,,,Washington,,DC,20032,US
97,1091301498101680,,"15245 Shady Grove Road",,,,Rockville,,MD,20850,US
98,634604766992517,,"3211 Sacred Heart Way",,,,Washington,,DC,20010,US
99,1219894388566981,,"1525 14th St NW Washington",,,,Washington,,DC,20005,US
100,991654914903385,,"1325 W Street, NW",,,,Washington,,DC,20009,US
101,910674112866949,,"5650 Oakmont Avenue",,,,Bethesda,,MD,20817,US
102,1295065323399805,,"1719 13th Street NW",,,,Washington,,DC,20009,US
103,670763981366130,,"1200 First Street NE",,,,Washington,,DC,20002,US
104,852667560851101,,"2 18th St SE",,,,Washington,,DC,20003,US
105,1285677988970642,,"1617 U Street NW",,,,Washington,,DC,20009,US
106,897641479895673,,"2437 15th St. NW",,,,Washington,,DC,20009,US
107,893134611210108,,"3194 Bladensburg Rd. NE",,,,Washington,,DC,20018,US
108,584764537637617,,"2100 Martin Luther King Avenue SE",,,,Washington,,DC,20020,US
109,1190992226347185,,"801 Pennsylvania Ave SE",,,,Washington,,DC,20003,US
110,569762980024499,,"1731 Bunker Hill Road, NE",,,,Washington,,DC,20017,US
110,646112200857058,,"1731 Bunker Hill Road, NE",,,,Washington,,DC,20017,US
111,1168801998093900,,"4450 Wisconsin Avenue NW",,,,Washington,,DC,20016,US
112,1283768891049166,,"3309 16th St NW",,,,Washington,,DC,20010,US
113,1089431432526337,,"6600 Laurel Bowie Road",,,,Bowie,,MD,20715,US
114,1166859805809640,,"1301 Pennsylvania Ave SE",,,,Washington,,DC,20003,US
115,1295303526129555,,"2812 Pennsylvania Avenue SE",,,,Washington,,DC,20020,US
116,857483351214468,,"1413 Girard Street, NW",,,,Washington,,DC,20009,US
117,978435202763698,,"3845 South Capitol Street",,,,Washington,,DC,20032,US
118,571282409737911,,"624 9th St NW",,,,Washington,,DC,20001,US
119,1263123342132362,,"4017 Minnesota Avenue, NE",,,,Washington,,DC,20019,US
120,1155644945880700,,"1320-1322 Anacostia Road SE",,,,Washington,,DC,20010,US
121,637109273390087,,"4501 Grant Street NE",,,,Washington,,DC,20019,US
122,950665445636496,,"5028 Wisconsin Ave NW",,,,Washington,,DC,20016,US
123,1216896137119914,,"6475 New Hampshire Ave",,,,Hyattsville,,MD,20783,US
124,991046422392107,,"3912 Georgia Ave NW",,,,Washington,,DC,20011,US
125,1012693305656130,,"901 G Street NW",,,,Washington,,DC,20001,US
126,623911698639626,,"2900 Newton St NE",,,,Washington,,DC,20018,US
127,1220403887966540,,"3935 Benning Road NE",,,,Washington,,DC,20019,US
128,665537720302910,,"1022 Maryland Ave NE",,,,Washington,,DC,20002,US
128,693867662447380,,"1022 Maryland Ave NE",,,,Washington,,DC,20002,US
129,1331109090254077,,"118 Brookley Ave SW",,,,Washington,,DC,20032,US
130,712658990764743,,"415 2nd Street NE",,,,Washington,,DC,20002,US
131,773036230997063,,"2498 Alabama Ave SE",,,,Washington,,DC,20020,US
132,802247163324047,,"2702 Ontario Rd NW",,,,Washington,,DC,20009,US
133,801824083496989,,"645 H St NE",,,,Washington,,DC,20002,US
134,1125441162012486,,"924 G St NW",,,,Washington,,DC,20001,US
135,1191044209171136,,"11425 Grandview Ave.",,,,"Silver Spring",,MD,20902,US
136,796898419678236,,"2041 Martin Luther King Ave. SE, 3rd Floor",,,,Washington,,DC,20020,US
137,1288442867873978,,"2907 Martin Luther King Jr Ave SE",,,,Washington,,DC,20032,US
138,972271189983680,,"9850 Key West Avenue",,,,Rockville,,MD,20850,US
139,1061235909513521,,"500 K Street NE",,,,Washington,,DC,20002,US
140,1156298037800579,,"4058 Minnesota Ave NE",,,,Washington,,DC,20019,US
141,610843915418170,,"403 Brightseat Road",,,,Landover,,MD,20785,US
142,1250362245990206,,"4301 Connecticut Ave NW",,,,Washington,,DC,20008,US
143,1006643802398414,,"734 University Ave. E.",,,,"Silver Spring",,MD,20903,US
144,1245500028616073,,"3333 14th St NW",,,,Washington,,DC,20010,US
145,1209346136301236,,"219 Riggs Road",,,,Washington,,DC,20011,US
146,1159744769911269,,"555 L Street SE",,,,Washington,,DC," 20003",US
147,1191500192034471,,"9850 Key West Ave",,,,Rockville,,MD,20850,US
148,1303213322109189,,"2301 Martin Luther King Jr. Ave SE",,,,Washington,,DC,20020,US
149,935244522535810,,"1547 Alabama Avenue SE",,,,Washington,,DC,20032,US
150,1175999961148897,,"6010 Georgia Ave. NW",,,,Washington,,DC,20011,US
151,800464838128526,,"2700 Martin Luther King Jr. Avenue SE",,,,Washington,,DC,20032,US
152,1182708981110979,,"899 N Capitol St NE",,,,Washington,,DC,20002,US
153,943694322277545,,"1455 Old Bridge Road",,,,Woodbridge,,VA,22192,US
154,1129247879259176,,"2119 G Street NW",,,,Washington,,DC,20037,US
155,810077928064262,,"1801 Hamlin Street NE",,,,Washington,,DC,20018,US
156,853629829456714,,"718 7th Street NW",,,,Washington,,DC,20001,US
157,1231651602484835,,"1351 Alabama Ave SE",,,,Washington,,DC,20032,US
158,1076247615804558,,"2315 18th Place NE",,,,Washington,,DC,20018,US
159,1269501575509775,,"202 Custer Rd",,,,"Ft Myer",,VA,22211,US
160,1035196061179073,,"1630 7th Street NW",,,,Washington,,DC,20001,US
161,802167449988638,,"1201 S Capitol St SW",,,,Washington,,DC,20003,US
162,779234665793356,,"2422 North Fillmore Street",,,,Arlington,,VA,22201,US
163,1288607908643209,,"425 2nd St NW",,,,Washington,,DC,20001,US
163,1044411535350668,,"425 2nd St NW",,,,Washington,,DC,20001,US
163,848643167597481,,"425 2nd St NW",,,,Washington,,DC,20001,US
164,800069869376535,,"3101 Martin Luther King Jr Ave SE",,,,Washington,,DC,20032,US
165,853177830631548,,"3715 2nd Street, SE",,,,Washington,,DC,20032,US
166,841012551878129,,"1525 7th St NW",,,,Washington,,DC,20001,US
167,979262089777285,,"12901 Georgia Avenue",,,,Wheaton,,MD,20906,US
168,833804515841086,,"1501 Columbia Rd NW",,,,Washington,,DC,20009,US
169,1143767333255844,,"400 E Street SW",,,,Washington,,DC,20024,US
170,626384571287639,,"7530 Georgia Ave NW",,,,Washington,,DC,20012,US
171,1300354176059967,,"2 North, 425 2nd St NW",,,,Washington,,DC,20001,US
172,693037857857932,,"1338 North Capitol St NW",,,,Washington,,DC,20002,US
173,1183173298558849,,"601 E St NW",,,,Washington,,DC,20049,US
174,903980033462689,,"4801 North Capitol Street NE",,,,Washington,,DC,20011,US
175,770924552273178,,"6301 Greentree Road",,,,Bethesda,,MD,20817,US
176,1142163554566402,,"71 O St NW",,,,Washington,,DC,20001,US
177,767072193495401,,"2112 F Street, N.W. Suite 102",,,,Washington,,DC,20037,US
178,1205020948348418,,"1700 Rhode Island Ave NE",,,,Washington,,DC,20018,US
179,766212450574576,,"3000 Pennsylvania Avenue, SE",,,,Washington,,DC,20020,US
180,826462308173307,,"2200 California St NW",,,,Washington,,DC,20008,US
181,1117618456680683,,"1101 Half Street SW",,,,Washington,,DC,20024,US
182,844015447975705,,"4606 16th St NW",,,,Washington,,DC,20011,US
183,1043993116448952,,"110 Irving St., NW",,,,Washington,,DC,20010,US
184,888565255284134,,"2813 Pennsylvania Avenue SE",,,,Washington,,DC,20020,US
185,990754403473385,,"7510 Maple Ave",,,,"Takoma Park",,MD,20912,US
186,1160077532191340,,"2600 12th St, NE",,,,Washington,,DC,20018,US
187,660130933621147,,"1412 Minnesota Ave SE",,,,Washington,,DC,20020,US
188,924308059712002,,"1204 3rd St NW",,,,Washington,,DC,20001,US
189,1179563747654780,,"906 H Street NE",,,,Washington,,DC,20002,US
190,644250986023852,,"4406 Georgia Ave NW",,,,Washington,,DC,20011,US
191,1255666996034353,,"1338 G Street SE",,,,Washington,,DC,20003,US
192,602194922558765,,"1377 R St. NW",,,,Washington,,DC,20009,US
193,1140130619656796,,"1905 E St SE",,,,Washington,,DC,20003,US
194,1263054632249689,,"P.O. Box 96763",,,,Washington,,DC,20090,US
195,1135336670475675,,"611 N St NW",,,,Washington,,DC,20001,US
196,1159353858034099,,"810 5th Street NW",,,,Washington,,DC,20001,US
196,1225318904357849,,"810 5th Street NW",,,,Washington,,DC,20001,US
197,984407158340054,,"840 Chesapeake St, SE",,,,Washington,,DC,20032,US
198,1300388977460036,,"1700 Powder Mill Road",,,,Washington,,DC,20903,US
199,590104892784839,,"1207 Taylor Street NW",,,,Washington,,DC,20011,US
200,920110206749977,,"801 7th St., SW",,,,Washington,,DC,20024,US
201,1160944456774158,,"1400 Florida Ave NE",,,,Washington,,DC,20002,US
202,744169816237550,,"601 Edgewood St., NE",,,,Washington,,DC,20017,US
203,977080631663121,,"1627 K St NW",,,,Washington,,DC,20006,US
204,1117622155194782,,"635 I Street, NE",,,,Washington,,DC,20002,US
205,994933787004216,,"901 G St NW",,,,Washington,,DC,20001,US
206,1281896636126927,,"1520 C Street SE",,,,Washington,,DC,20003,US
207,765146043026123,,"2712 Ontario Road NW",,,,Washington,," DC",20009,US
208,1172909242301924,,"1438 Rhode Island Avenue NE",,,,Washington,,DC,20018,US
209,1125282502738313,,"2207 Columbia Pike",,,,Arlington,,VA,22204,US
210,982525680938497,,"50 Irving St NW",,,,Washington,,DC,20422,US
211,1301350893555178,,"2616 Martin Luther King Jr. Ave, SE",,,,Washington,,DC,20020,US
212,849213479290179,,"15th St NW & K Street Northwest",,,,Washington,,DC,20005,US
213,891308792501399,,"400 50th Street, SE",,,,Washington,,DC,20019,US
214,910542962335929,,"1957 4th Street, N.E.",,,,Washington,,DC,20002,US
215,1133890153315802,,"1318 Park Road, NW",,,,Washington,,DC,20010,US
216,879688258127018,,"714 G St SE",,,,Washington,,DC,20003,US
217,987681737906027,,"455/457 Florida Avenue, NW",,,,Washington,,DC,20001,US
218,1312052344982531,,"807 2nd St, NW",,,,Washington,,DC,20001,US
219,748318220525650,,"4200 Kansas Avenue NW",,,,Washington,,DC,20011,US
220,759833313909140,,"4609 Polk Street, NE",,,,Washington,,DC,20019,US
221,1118558741921381,,"3025 Hamaker Court, Suite 450",,,,Fairfax,,VA,22031,US
222,959526986815629,,"1300 1st St NE",,,,Washington,,DC,20002,US
223,961940750930741,,"8118 Good Luck Rd",,,,Lanham,,MD,20706,US
224,655506922521028,,"2300 Martin Luther King Jr Ave SE",,,,Washington,,DC,20020,US
224,567375676110841,,"2300 Martin Luther King Jr Ave SE",,,,Washington,,DC,20020,US
225,603618233221428,,"6123 Montrose Road",,,,Rockville,,MD,20852,US
226,855789547158426,,"1876 4th St NE",,,,Washington,,DC,20002,US
227,906614178779692,,"624 West Church Road",,,,Sterling,,VA,20164,US
228,851341569805212,,"4201 Connecticut Ave., NW",,,,Washington,,DC,20008,US
229,1096962324914778,,"1329 9th St NW",,,,Washington,,DC,20001,US
230,1146850101014457,,"2333 Ontario Rd NW",,,,Washington,,DC,20009,US
231,1214902198182923,,"915 Rhode Island Avenue",,,,Washington,,DC,20001,US
232,1123778264785628,,"3160 16th Street NW",,,,Washington,,DC,20010,US
233,1096322006760905,,"5001 Central Avenue SE",,,,Washington,,DC,20019,US
234,678805469856026,,"1001 Lawrence St NE",,,,Washington,,DC,20017,US
235,953875575104132,,"100 Gallatin Street NE",,,,Washington,,DC,20011,US
236,1168148392185022,,"3023 Hamaker Court",,,,Fairfax,,VA,22031,US
237,920613426512187,,"1906 Allison Street, NE",,,,Washington,,DC,20018,US
238,1077472017140637,,"201 E Diamond Avenue, 3rd Floor",,,,Gaithersburg,,MD,20877,US
239,647230404089036,,"8501 Jericho City Drive",,,,Landover,,MD,20785,US
240,538977790426516,,"1312 East Capitol Street",,,,Washington,,DC,20003,US
241,660448310809163,,"1701 14th St NW",,,,Washington,,DC,20009,US
242,955494998117578,,"919 University Blvd West",,,,"Silver Spring",,MD,20903,US
243,1166119497090312,,"641 46th Street SE, Unit 12",,,,Washington,,DC,20019,US
244,1327111523498666,,"3401 Martin Luther King Jr. Ave, SE",,,,Washington,,DC,20032,US
245,1276820526849172,,"901 Rhode Island Ave NW",,,,Washington,,DC,20001,US
246,813552424554778,,"1101 Vermont Avenue, NW, Suite 1200",,,,Washington,,DC,20005,US
247,653251900948938,,"1460 Columbia Rd NW",,,,Washington,,DC,20009,US
248,890225932378329,,"900 Wesley Place SW",,,,Washington,,DC,20024,US
249,782008328527476,,"219 50th Street, SE",,,,Washington,,DC,20019,US
250,945974432326654,,"4414 Benning Road NE",,,,Washington,,DC,20019,US
251,673635399946198,,"441 4th Street NW, 900S",,,,Washington,,DC,20001,US
252,877840974751997,,"301 Rhode Island Ave NW",,,,Washington,,DC,20001,US
253,1293661242956981,,"4808 Moorland Lane",,,,Bethesda,,MD,20814,US
254,990336044058622,,"3412 Dent Place NW",,,,Washington,,DC,20007,US
255,932502301190120,,"1330 Missouri Street NW",,,,Washington,,DC,20011,US
256,1092551085212094,,"1525 Newton St NW",,,,Washington,,DC,20010,US
256,1160291369304648,,"1525 Newton St NW",,,,Washington,,DC,20010,US
256,1249696647199145,,"1525 Newton St NW",,,,Washington,,DC,20010,US
257,1289696854137570,,"701 Maryland Avenue NE",,,,Washington,,DC,20002,US
258,553317561400491,,"2041 Georgia Ave NW",,,,Washington,,DC,20060,US
259,1268130794771257,,"75 P St NE",,,,Washington,,DC,20002,US
260,574603403182846,,"111 Rhode Island Ave NW",,,,Washington,,DC,20001,US
261,1299568679392516,,"6323 Georgia Ave NW",,,,Washington,,DC,20011,US
262,957027288949288,,"12301 Old Columbia Pike",,,,"Silver Spring",,MD,20904,US
263,869647738071923,,"1842 Calvert Street NW",,,,Washington,,DC,20009,US
264,950611509071482,,"26B Fairfax Street SE",,,,Leesburg,,VA,20175,US
265,622769721428949,,"3522 Connecticut Avenue NW",,,,Washington,,DC,20008,US
266,1252910195472458,,"2425 Irving Street SE",,,,Washington,,DC,20020,US
267,1319160943243149,,"2938 Prosperity Ave",,,,Fairfax,,VA,22031,US
267,583377819980477,,"2938 Prosperity Ave",,,,Fairfax,,VA,22031,US
268,818731653276709,,"601 Division Avenue NE",,,,Washington,,DC,20019,US
269,836560118683353,,"3321 11th St NW",,,,Washington,,DC,20010,US
270,852062736759123,,"12301 Old Columbia Pike, Suite 200",,,,"Silver Spring",,MD,20904,US
271,771442194435641,,"14412 Old Mill Road Suite #201",,,,"Upper Marlboro",,MD,20772,US
272,1279229683648851,,"4 Atlantic Street, SW",,,,Washington,,DC,20032,US
273,996758537763515,,"3917 Minnesota Ave NE",,,,Washington,,DC,20019,US
274,566932797594098,,"6323 Georgia Ave",,,,Washington,,DC,20011,US
275,1276182199916444,,"5 Thomas Cir NW",,,,Washington,,DC,20005,US
276,944001764606866,,"2000 Channing St NE",,,,Washington,,DC,20018,US
277,1062849514501246,,"801 Buchanan St NE",,,,Washington,,DC,20017,US
278,867088492370349,,"4049 South Capitol Street SW",,,,Washington,,DC,20032,US
279,789483190572876,,"4300 Wisconsin Avenue NW",,,,Washington,,DC,20016,US
280,635902575070564,,"439 New Jersey Avenue NW",,,,Washington,,DC,20001,US
281,826158382123021,,"2412 Minnesota Avenue, SE",,,,Washington,,DC,20020,US
282,883870204820767,,"1200 North Capitol Street NW",,,,Washington,,DC,20002,US
283,1182283909073233,,"1725 Lincoln Rd NE",,,,Washington,,DC,20002,US
283,587809760292730,,"1725 Lincoln Rd NE",,,,Washington,,DC,20002,US
284,827068480481455,,"1345 U Street SE",,,,Washington,,DC,20020,US
285,783199676002765,,"1313 New York Ave NW, Fifth Floor",,,,Washington,,DC,20005,US
285,1178936106690461,,"1313 New York Ave NW, Fifth Floor",,,,Washington,,DC,20005,US
285,1241393389350088,,"1313 New York Ave NW, Fifth Floor",,,,Washington,,DC,20005,US
286,725060877971150,,"1112 16th St NW #240",,,,Washington,,DC,20036,US
287,873890719454689,,"1150 Varnum St NE",,,,Washington,,DC,20017,US
288,1141380228418615,,"9506 Richmond Hwy",,,,Lorton,,VA,22079,US
289,661085324813258,,"7941 Janna Lee Avenue",,,,Alexandria,,VA,22306,US
290,1256876059595748,,"7420 Georgia Avenue NW",,,,Washington,,DC,20012,US
291,1163405927375948,,"2523 14th St NW",,,,Washington,,DC,20009,US
292,658610517897796,,"3420 14th Street NW",,,,Washington,,DC,20010,US
293,671699874900293,,"1660 Columbia Road NW",,,,Washington,,DC,20009,US
294,871232328119150,,"P.O. Box 48626",,,,Washington,,DC,20002,US
295,1285941015621805,,"3260 R Street NW",,,,Washington,,DC,20007,US
296,685641446710222,,"416 Cedar Street NW",,,,Washington,,DC,20012,US
297,1136470398726733,,"2509 Good Hope Road SE",,,,Washington,,DC,20020,US
298,645373982298053,,"4015 Fielding St",,,,Alexandria,,VA,22309,US
299,753670429342362,,"850 26th St., NE",,,,Washington,,DC,20002,US
300,882293888224112,,"3400 North 13th Street",,,,Arlington,,VA,22201,US
300,834036632030985,,"3400 North 13th Street",,,,Arlington,,VA,22201,US
301,758324816049097,,"12800 New Hampshire Ave",,,,"Silver Spring",,MD,20904,US
302,1286290424953168,,"600 5th St NW",,,,Washington,,DC,20001,US
303,840683017480302,,"1008 45th St NE",,,,Washington,,DC,20019,US
304,995317546520269,,"1818 New York Ave NE",,,,Washington,,DC,20018,US
305,683981038233399,,"1649 Good Hope Rd SE",,,,Washington,,DC,20020,US
306,1215072401279141,,"60 O St NW",,,,Washington,,DC,20001,US
306,867480542956619,,"60 O St NW",,,,Washington,,DC,20001,US
307,909412769598597,,"1800 Good Hope Road SE",,,,Washington,,DC,20020,US
308,908942274584388,,"111 Michigan Ave NW",,,,Washington,,DC,20010,US
309,941990903583859,,"1313 New York Avenue, NW BSMT Suite 1",,,,Washington,,DC,20005,US
310,1185094328556228,," 4201 Butterworth Place, N.W.",,,,Washington,,DC,20016,US
311,1018253357347462,,"1300 New Jersey Avenue NW",,,,Washington,,DC,20001,US
312,1130366462113469,,"1234 Massachusetts Ave NW",,,,Washington,,DC,20005,US
313,1117118492901641,,"501 Sligo Avenue",,,,Washington,,DC,20910,US
314,898537800432105,,"1251-B Saratoga Ave NE",,,,Washington,,DC,20018,US
315,834696315742469,,"3300 Pennsylvania Ave SE",,,,Washington,,DC,20020,US
316,1132222085127471,,"1763 Lanier Place NW",,,,Washington,,DC,20009,US
317,1326321443548696,,"8794-A Sacramento Drive",,,,Alexandria,,VA,22309,US
318,748854388242171,,"200 I St SE",,,,Washington,,DC,20003,US
319,1092756194618999,,"9601 Colesville Road",,,,"Silver Spring",,MD,20901,US
320,1139106965939659,,"65 Massachusetts Avenue, NW",,,,Washington,,DC,20001,US
320,633623168263940,,"65 Massachusetts Avenue, NW",,,,Washington,,DC,20001,US
321,1099219791360979,,"3800 Reservoir Rd",,,,Washington,,DC,20007,US
322,1270081732081180,,"2041 Martin Luther King Jr. Ave., SE",,,,Washington,,DC,20020,US
323,1114551742239605,,"1627 Kenilworth Ave. NE",,,,Washington,,DC,20019,US
324,854967346211154,,"4130 Hunt Place, NE",,,,Washington,,DC,20019,US
325,599293678245907,,"20501 Georgia Avenue",,,,Brookville,,MD,20833,US
326,1220913087660847,,"3720 Martin Luther King Jr Ave SE",,,,Washington,,DC,20032,US
327,1210032943864131,,"18905 Kingsview Rd",,,,Germantown,,MD,20874,US
328,562543524311596,,"77 P St NE",,,,Washington,,DC,20002,US
329,785890152776040,,"741 8th St SE",,,,Washington,,DC,20003,US
330,1275795457873123,,"3016 Martin Luther King SE",,,,Washington,,"DC ",20032,US
331,623386708908164,,"1350 49th Street NE",,,,Washington,,DC,20019,US
332,604721858303896,,"1333 N St NW",,,,Washington,,DC,20005,US
332,935485129696113,,"1333 N St NW",,,,Washington,,DC,20005,US
333,1205691016832902,,"2001 Mississippi Ave SE",,,,Washington,,DC,20020,US
334,760606739511356,,"12247 Georgia Ave",,,,"Silver Spring",,MD,20902,US
335,890802848970199,,"5000 Block Nannie Helen Burroughs Ave NE",,,,Washington,,DC,20019,US
336,827272218664674,,"900 North Capitol Street NW",,,,Washington,,DC,20001,US
337,877576876041734,,"2225 5th Street NE",,,,Washington,,DC,20002,US
338,1218401963055584,,"250 E St SW",,,,Washington,,DC,20024,US
339,1202618027693441,,"3912 Georgia Avenue, NW",,,,Washington,,DC,20011,US
340,1146962447647430,,"1734 7th St. NW",,,,Washington,,DC,20001,US
341,1274752047885511,,"1701 Gales Street NE",,,,Washington,,DC,20002,US
342,777359034139686,,"3203 Martin Luther King Jr Avenue SE",,,,Washington,,DC,20032,US
343,636167681957227,,"611 Edgewood St., NE",,,,Washington,,DC,20017,US
344,1056414203994963,,"25 - 53rd Street NE",,,,Washington,,DC,20019,US
345,1103047411510967,,"1419 Columbia Rd NW",,,,Washington,,DC,20009,US
345,1273232122875210,,"1419 Columbia Rd NW",,,,Washington,,DC,20009,US
346,785947788193097,,"1227 Monroe Street NE",,,,Washington,,DC,20017,US
347,1319844001361667,,"330-B S. Virginia Ave.",,,,"Falls Church",,VA,22046,US
348,1233404465582125,,"64 New York Avenue, NE, 3rd Floor",,,,Washington,,DC,20002,US
349,895829905770410,,"3045 15th Street, NW",,,,Washington,,DC,20009,US
350,637684733149897,,"2501 18th St NE",,,,Washington,,DC,20018,US
351,1142441892698286,,"1221 Taylor Street NW",,,,Washington,,DC,20011,US
352,759315113269853,,"1800 Martin Luther King Jr. Avenue SE",,,,Washington,,DC,20020,US
353,1156951251699636,,"500 F Street NW",,,,Washington,,DC,20001,US
354,898209455512951,,"425 I St, NW, #700",,,,Washington,,DC,20001,US
355,674838894214197,,"5100 Wisconsin Ave NW",,,,Washington,,DC,20016,US
356,600295822156667,,"2225 M Street NW",,,,Washington,,DC,20037,US
357,752192406551414,,"421 Alabama Ave SE",,,,Washington,,DC,20032,US
357,1193198730195892,,"421 Alabama Ave SE",,,,Washington,,DC,20032,US
358,1171401871170354,,"2701 Prosperity Ave",,,,Fairfax,,VA,22031,US
359,1173183937901099,,"6811 Kenilworth Avenue",,,,Riverdale,,MD,20737,US
360,1020706673677182,,"10001 Rhode Island Ave",,,,"College Park",,MD,20740,US
361,572575030404839,,"2822-2824 Sherman Avenue, NW",,,,Washington,,DC,20001,US
362,733623340463849,,"220 I St NE",,,,Washington,,DC,20002,US
363,1137892633327650,,"1628 16th St NW",,,,Washington,,DC,20009,US
364,789492083968992,,"3310 Connecticut Ave NW",,,,Washington,,DC,20008,US
365,1219450960862351,,"2041 Martin Luther King Jr. Ave, SE, 4th Floor",,,,Washington,,DC,20020,US
365,1078276338322764,,"2041 Martin Luther King Jr. Ave, SE, 4th Floor",,,,Washington,,DC,20020,US
365,834393407905740,,"2041 Martin Luther King Jr. Ave, SE, 4th Floor",,,,Washington,,DC,20020,US
366,818197734902999,,"500 K St. NE",,,,Washington,,DC,20002,US
367,1012043594454236,,"2525 12th Pl SE",,,,Washington,,DC,20020,US
368,541907027325035,,"3222 Hubbard Road",,,,Landover,,MD,20785,US
369,838706856391599,,"4600 Livingston Road, SE, Floor#3",,,,Washington,,DC,20032,US
370,1217520405916264,,"500 I St NW",,,,Washington,,DC,20001,US
371,929361885175005,,"1200 Clifton Street NW",,,,Washington,,DC,20009,US
372,1127198971919902,,"2920 Minnesota Ave SE",,,,Washington,,DC,20019,US
373,841663889311858,,"1100 4th St SW",,,,Washington,,DC,20024,US
374,754005286138744,,"1125 New Jersey Avenue, NW",,,,Washington,,DC,20001,US
375,1157647595052033,,"1328 Southern Avenue",,,,Washington,,DC,20032,US
376,1170496916271417,,"1413 K St NW",,,,Washington,,DC,20005,US
377,803919860966416,,"2210 Adams Place NE",,,,Washington,,DC,20018,US
378,1116308991917029,,"501 3rd Street NW",,,,Washington,,DC,20001,US
379,1199113598082869,,"2500 Parkers Ln",,,,Alexandria,,VA,22306,US
380,623817892479347,,"5413 16th St. NW",,,,Washington,,DC,20011,US
381,1192687808287205,,"403 7th Street SE",,,,Washington,,DC,20003,US
382,769953967292170,,"1801 East Jefferson St.",,,,Rockville,,MD,20852,US
383,1197859127148279,,"3707 Martin Luther King Jr Ave SE",,,,Washington,,DC,20032,US
384,901570423713957,,"3210 SE Corporate Woods Drive",,,,Ankeny,,IA,50021,US
385,1281917418518969,,"6031 Kansas Avenue NW",,,,Washington,,DC,20011,US
386,908423552645976,,"4228 Wisconsin Ave NW",,,,Washington,,DC,20016,US
387,754270075554049,,"2115 Ward Court NW",,,,Washington,,DC,20037,US
388,971101638249063,,"768 Morton Street, NW",,,,Washington,,DC,20010`,US
389,1069239089485198,,"650 Pennsylvania Ave",,,,Washington,,DC,20003,US
390,1118601745413208,,"1924 Savannah Terrace SE, Suite C",,,,Washington,,DC,20020,US
391,1250565194691665,,"2204 Martin Luther King Ave. SE",,,,Washington,,DC,20020,US
392,750119883782411,,"8615 Piney Branch Rd.",,,,"Silver Spring",,MD,20901,US
393,774762987300374,,"8818 Piney Branch Rd",,,,"Silver Spring",,MD,20903,US
394,1260258325512587,,"4713 Wisconsin Ave NW",,,,Washington,,DC,20016,US
394,1167767752140850,,"4713 Wisconsin Ave NW",,,,Washington,,DC,20016,US
395,967601719856630,,"8505 Springvale Rd.",,,,"Silver Spring",,MD,20910,US
396,1284378916833442,,"1331 H St NW",,,,Washington,,DC,20005,US
397,940212538195830,,"9800 Hastings Drive",,,,"Silver Spring",,MD,20901,US
398,1249100999590019,,"8792 Sacramento Drive",,,,Alexandria,,VA,22309,US
399,1104999420030021,,"2421 Lawrence St NE",,,,Washington,,DC,20018,US
400,621313880084833,,"441 4th St NW",,,,Washington,,DC,20001,US
401,909337693416412,,"2709 Popkins Lane",,,,Alexandria,,VA,22306,US
402,1269099704638669,,"2401 Virginia Ave NW",,,,Washington,,DC,20037,US
403,777544006426049,,"3924 Minnesota Avenue NE",,,,Washington,,DC,20019,US
404,1299289453217378,,"305 E St NW",,,,Washington,,DC,20001,US
404,840736701093471,,"305 E St NW",,,,Washington,,DC,20001,US
405,940988880402930,,"828 Evarts Street NE",,,,Washington,,DC,20018,US
405,1296924653275525,,"828 Evarts Street NE",,,,Washington,,DC,20018,US
406,898004780647297,,"801 17th Street, NE ",,,,Washington,,DC,20002,US
406,633948475356537,,"801 17th Street, NE ",,,,Washington,,DC,20002,US
407,1274248047601637,,"2224 E. Fayette St.",,,,Baltimore,,MD,21231,US
408,885249502385725,,"2114 14th St NW",,,,Washington,,DC,20009,US
409,897334286466946,,"2303 Martin Luther King Jr Ave SE",,,,Washington,,DC,20020,US
410,624397784374194,,"128 M St NW",,,,Washington,,DC,20001,US
411,616726566011959,,"3400 14th St. NW",,,,Washington,,DC,20010,US
412,970045820687110,,"540 55th Street NE, Room W 101",,,,Washington,,DC,20019,US
413,995487732055408,,"414 8th Street SE",,,,Washington,,DC,20003,US
414,966006768634994,,"4301 9th St SE",,,,Washington,,DC,20032,US
415,1206435323040525,,"64 New York Avenue NE, 5th Floor",,,,Washington,,DC,20002,US
416,1154007819992809,,"1310 Southern Ave., SE",,,,Washington,,DC,20032,US
416,804162820575251,,"1310 Southern Ave., SE",,,,Washington,,DC,20032,US
417,1333682431246522,,"1949 4th Street, N.E.",,,,Washington,,DC,20002,US
418,746894816095911,,"4315 3rd St SE",,,,Washington,,DC,20032,US
419,651934751090741,,"1667 Good Hope Road SE",,,,Washington,,DC,20020,US
420,758452020301645,,"5505 Fifth Street NW",,,,Washington,,DC,20011,US
421,1214403176463678,,"6196 Oxon Hill Rd., Suite 340",,,,"Oxon Hill",,MD,20745,US
422,988814873768650,,"1474 Columbia Rd NW",,,,Washington,,DC,20009,US
423,752194277966513,,"645 H Street NE",,,,Washington,,DC,20002,US
424,909420379146552,,"1133 N Capitol St NE",,,,Washington,,DC,20002,US
425,1102078052551645,,"6525 Belcrest Rd",,,,Hyattsville,,MD,20782,US
426,850095150902601,,"2 Teachers Way, Room 200",,,,Gaithersburg,,MD,20877,US
427,1328529263083601,,"212 East Capitol St. NE",,,,Washington,,DC,20003,US
428,1013220022014176,,"300 Indiana Ave NW",,,,Washington,,DC,20001,US
429,1068693490671334,,"2375 Elvans Road S.E.",,,,Washington,,DC,20020,US
430,1315539978603581,,"5321 First Place NE",,,,Washington,,DC,20011,US
431,584215858451001,,"920 Rhode Island Avenue NE",,,,Washington,,DC,20018,US
432,666585505385556,,"2303 14th Street NW",,,,Washington,,DC,20009,US
433,1085137251641611,,"9900 Georgia Avenue",,,,"Silver Spring",,MD,20902,US
434,923156776542484,,"1018 13th Street NW",,,,Washington,,DC,20005,US
435,1080745784913482,,"4003 Camp Letts Road",,,,Edgewater,,MD,21037,US
436,999180107217935,,"4500 Forbes Boulevard",,,,Lanham,,MD,20706,US
437,1153279049261324,,"311 47th Street NE",,,,Washington,,DC,20019,US
438,1101683690019372,,"1711 V Street, S.E.",,,,Washington,,DC,20020,US
439,580857017779168,,"1355 New York Avenue NE",,,,Washington,,DC,20002,US
440,1175190163226960,,"3531 Georgia Avenue NW",,,,Washington,,DC,20010,US
441,842889096789965,,"4811 Macarthur Boulevard NW",,,,Washington,,DC,20016,US
442,1103297850067355,,"3043 30th St. SE",,,,Washington,,DC,20020,US
443,964800187171150,,"1436 U St NW",,,,Washington,,DC,20009,US
444,1293436869828060,,"645 Pennsylvania Ave SE",,,,Washington,,DC,20003,US
445,1190288283777701,,"14645 Rothgeb Dr.",,,,Rockville,,MD,20850,US
446,1295522145612055,,"64 New York Avenue NE, 6th Floor",,,,Washington,,DC,20002,US
447,624574598656861,,"2100 New York Avenue NE",,,,Washington,,DC,20002,US
448,1199753303956769,,"451 7th Street SW",,,,Washington,,DC,20410,US
449,839573866990556,,"1640 Good Hope Road SE",,,,Washington,,DC,20020,US
450,1005588549680598,,"1618 Monroe St NW",,,,Washington,,DC,20010,US
451,1129396857159702,,"4901 V Street NW",,,,Washington,,DC,20007,US
452,829909214250667,,"4201 Minnesota Avenue NE",,,,Washington,,DC,20019,US
453,789780848857990,,"1111 Taft St",,,,Rockville,,MD,20850,US
454,1102714062099449,,"910 Westminster St NW",,,,Washington,,DC,20001,US
455,1235077423167985,,"820 Chesapeake St SE",,,,Washington,,DC,20032,US
456,1204439644410266,,"5101 Georgia Avenue NW",,,,Washington,,DC,20011,US
457,825454741717939,,"1800 M St NW",,,,Washington,,DC,20036,US
458,778922579379097,,"3939 Benning Rd NE",,,,Washington,,DC,20019,US
458,1120606829940602,,"3939 Benning Rd NE",,,,Washington,,DC,20019,US
459,1266181157379469,,"1470 Irving St. NW",,,,Washington,,DC,20010,US
460,602400615052275,,"300 New Jersey N.W.",,,,Washington,,DC,20001,US
461,812782874544268,,"4225 6th Street",,,,Washington,,DC,20032,US
462,933666460806255,,"1310 Southern Ave SE, Suite G082",,,,Washington,,DC,20032,US
463,669512480103420,,"1900 Massachusetts Ave SE, Building #13",,,,Washington,,DC,20003,US
464,1264887939520326,,"500 Indiana Avenue, NW",,,,Washington,,DC,20001,US
465,831473206652840,,"3600 Brightseat Rd",,,,Glenarden,,"MD ",20706,US
466,861950181964621,,"2901 14th St NW",,,,Washington,,DC,20009,US
467,669898504214935,,"815 Florida Ave NW",,,,Washington,,DC,20001,US
468,1251263915124950,,"716 I Street SE",,,,Washington,,DC,20003,US
469,854230368107837,,"2301 L Street NW",,,,Washington,,DC,20037,US
470,573970502850349,,"8757 Georgia Ave",,,,"Silver Spring",,MD,20910,US
471,716573413368445,,"420 East Monroe Avenue",,,,Alexandria,,VA,22301,US
472,1317058386900282,,"7978-B New Hampshire Ave.",,,,Hyattesville,,MD,20783,US
473,1231381914283530,,"2410 17th St NW",,,,Washington,,DC,20009,US
474,1193878881902253,,"1733 T Street SE",,,,Washington,,DC,20001,US
475,967598687864523,,"3660 Alabama Avenue SE",,,,Washington,,DC,20020,US
476,1272787330877007,,"2118 Ridgecrest Court, SE",,,,Washington,,DC,20020,US
477,1078875042301972,,"8151 15th Ave",,,,"Langley Park",,MD,20783,US
478,810081831183407,,"2250 Champlain St NW",,,,Washington,,DC,20009,US
479,1255140834443689,,"1500 Galen Street SE",,,,Washington,,DC,20020,US
480,1092715705970916,,"4125 Albemarle St NW",,,,Washington,,DC,20016,US
481,601572087337202,,"57 O St NW",,,,Washington,,DC,20001,US
482,967529880147269,,"5032 D St., SE",,,,Washington,,DC,20019,US
483,783704808784700,,"1400 Decatur St NW",,,,Washington,,DC,20011,US
484,850977498591612,,"3851 Alabama Ave SE",,,,Washington,,DC,20020,US
485,1239287635408868,,"2419 Minnesota Ave SE",,,,Washington,,DC,20020,US
486,893470451792465,,"5936 Martin Luther King Jr., Hwy",,,,"Seat Pleasant",,MD,20743,US
487,1320760535782101,,"2200 S Dakota Ave NE",,,,Washington,,DC,20018,US
488,839539921735392,,"4253 Barnaby Road, SE",,,,Washington,,DC,20032,US
489,1123231976798921,,"900 Rhode Island Ave NE",,,,Washington,,DC,20018,US
490,1091350492556485,,"1920 G Street NW",,,,Washington,,DC,20006,US
492,,,"134 Soerubg St",,,,Arlington,,MD,15564,US
493,,,"near pvr cinema,chandkheda",,,,Arlington,,MD,383345,US
